pharmacyName,town,cordinates,streetAdress,phoneNumber,type
Pharmacie BOUAZIZ HAMMADI,ARIANA VILLE,"36.857636,10.191110",Av 18 JANVIER ARIANA ARIANA VILLE,71717913,DAY
Pharmacie BOUDEN TAOUFIK,ARIANA VILLE,"36.863405,10.191110","24, Av AHMED KHABTHANI ARIANA ARIANA VILLE",71712619,DAY
Pharmacie REZGUI CHARNINE LEILA,ARIANA VILLE,"36.860802,10.191110","27, Rue DE BEYROUT ARIANA ARIANA VILLE",71715991,DAY
Pharmacie FARZA LEILA,ARIANA VILLE,"36.860684,10.191110","66, Av ALI BELHOUANE ARIANA ARIANA VILLE",71710678,DAY
Pharmacie FEKI MOHAMED HABIB,ARIANA VILLE,"36.860900,10.191110",Rue EL QODS (JERUSALEM) ARIANA ARIANA VILLE,71710811,DAY
Pharmacie GHEZAIEL MONCEF,ARIANA VILLE,"36.8591,10.191110","20, Av DE CARTHAGE ARIANA ARIANA VILLE",71714717,DAY
Pharmacie GHROUBI CHAABANE SANA,ARIANA VILLE,"36.855335,10.191110",Rue KEHNA ARIANA ARIANA VILLE,71702790,DAY
Pharmacie ATALLAH EYA,ARIANA VILLE,"36.856960,10.191110",Av MUSTAPHA HJAIEJ - Rce ROSAMISS ARIANA ARIANA VILLE,71719448,DAY
Pharmacie KOBBI INES,ARIANA VILLE,"36.849499,10.191110","35, Av HABIB BOURGUIBA ARIANA ARIANA VILLE",71702102,DAY
Pharmacie AMMAR KRICHEN ZEINEB,ARIANA VILLE,"36.859053,10.191110","44, Av TAIEB MHIRI ARIANA ARIANA VILLE",71714659,DAY
Pharmacie DJAIT ELLOUMI RAJA,ARIANA VILLE,"36.862073,10.187084",Rue ALI BELHOUANE?- Rce LES ROSES ARIANA ARIANA VILLE,71710213,DAY
Pharmacie MARRAKCHI MOALLA CHEDIA,ARIANA VILLE,"36.862090,10.187084","1, Av HEDI KHEFACHA ARIANA ARIANA VILLE",70741085,DAY
Pharmacie MIDOUN NAJJAR MARIEM,ARIANA VILLE,"36.867253,10.187084",Av IBN KHALDOUN ARIANA ARIANA VILLE,70823933,DAY
Pharmacie SAHNOUN RAOUF,ARIANA VILLE,"36.858566,10.187084","15, Av TAIEB MHIRI? ARIANA ARIANA VILLE",71711914,DAY
Pharmacie GHILEB GULSURENE MALEK,BORJ LOUZIR,"36.864730,10.187084","5, Av MUSTAPHA MOHSEN ARIANA BORJ LOUZIR",71692386,DAY
Pharmacie TRIFA KAMMOUN FARIHA,BORJ LOUZIR,"36.866495,10.187084","87, Av de l'UMA ARIANA BORJ LOUZIR",70683569,DAY
Pharmacie OURABI MAJDI,BORJ LOUZIR,"36.876107,10.187084","27, Rue ABDERRAHMEN MAMI ARIANA BORJ LOUZIR",70697626,DAY
Pharmacie BEN HAFAIEDH HASSEN,BORJ LOUZIR,"36.865859,10.187084","11 bis, Rue ABDERRAHMEN MAMI ARIANA BORJ LOUZIR",70689110,DAY
Pharmacie CHAARI HAJER,BORJ LOUZIR,"36.867573,10.187084","75, Av MUSTAPHA MOHSEN ARIANA BORJ LOUZIR",71695380,DAY
Pharmacie JABEUR ABDERRAHMEN,BORJ TOUIL,"36.901077,10.187084",CENTRE GEANT TUNIS CITY ARIANA BORJ TOUIL,70835820,DAY
Pharmacie BEN SLIMANE SEIFEDDINE,CEBALAT BEN AMMAR,"36.913017,10.105492",Rte DE BIZERTE ARIANA CEBALAT BEN AMMAR,71537610,DAY
Pharmacie KCHIR MEMMI MONIA,CHOTRANA,"36.887600,10.105492","111, Av JAWDET EL HAYET ARIANA CHOTRANA",70693059,DAY
Pharmacie BEN YACOUB ABBASSI NABILA,ENNASR,"36.856100,10.105492",Av HEDI NOUIRA ARIANA ENNASR,70830581,DAY
Pharmacie KHABTHANI ILYES,ENNASR,"36.859263,10.105492","125, Av DE L'ERE NOUVELLE ARIANA ENNASR",70039687,DAY
Pharmacie CHEIKHROUHOU BEN MOSBAH JAOUIDA,ENNASR,"36.85676383,10.105492",Av HEDI NOUIRA - Rce GHASSEN ARIANA ENNASR,71828554,DAY
Pharmacie KAMMOUN DHOUIB MOUNIRA,ENNASR,"36.858816,10.105492",Av DE L'ERE NOUVELLE - Rce LES EMERAUDES ARIANA ENNASR,70852909,DAY
Pharmacie FAKER KADDOUR NAJOUA,ENNASR,"36.867535,10.105492",Av HEDI NOUIRA - Imm ISIS ARIANA ENNASR,71818451,DAY
Pharmacie FEKIH ZAGHBIB SONIA,ENNASR,"36.860533,10.105492",Av DE L'ERE NOUVELLE - Rce ERRIADH ARIANA ENNASR,70831080,DAY
Pharmacie KAOUEL JAMELEDDINE,ENNASR,"36.862029,10.105492",Av HEDI NOUIRA - Imm LA COUPOLE ARIANA ENNASR,70851305,DAY
Pharmacie KHABTHANI BERANGERE,ENNASR,"36.858558,10.105492","54, Av H. NOUIRA - Imm NOUR EL HOUDA ARIANA ENNASR",70831781,DAY
Pharmacie SMAOUI KARRAY SALWA,ENNASR,"36.865140,10.168511",Av HEDI NOUIRA - Imm SARAYA ARIANA ENNASR,70852979,DAY
Pharmacie DOUIK TAABOURI RAOUDHA,ETTADHAMEN,"36.824248,10.168511",Av DE L'ENVIRONNEMENT ARIANA ETTADHAMEN,71545964,DAY
Pharmacie JELILI KAIS,ETTADHAMEN,"36.836772,10.168511","293, Rue 105 ARIANA ETTADHAMEN",71546733,DAY
Pharmacie AMARA BEN RHOUMA ZOHRA,ETTADHAMEN,"36.830593,10.168511",Rue TAIEB MHIRI ARIANA ETTADHAMEN,71516453,DAY
Pharmacie BRAIEK ABDELMAJID,ETTADHAMEN,"36.838513,10.168511","533, Rue 105 ARIANA ETTADHAMEN",70663966,DAY
Pharmacie AZZOUZI FERCHICHI RYM,ETTADHAMEN,"36.836207,10.168511","57, Av TAIEB MHIRI ARIANA ETTADHAMEN",71549230,DAY
Pharmacie ZGOLLI FARAH,ETTADHAMEN,"36.827108,10.168511",PLACE DE L'INDEPENDANCE ARIANA ETTADHAMEN,71223674,DAY
Pharmacie BEN ABDELFETTAH WASSIM,ETTADHAMEN,"36.834064,10.168511","35 bis, Rue 105 ARIANA ETTADHAMEN",70663969,DAY
Pharmacie BEN KHEDIJA AMEL,ETTADHAMEN,"36.832567,10.168511",Av TAIEB MHIRI ARIANA ETTADHAMEN,71546982,DAY
Pharmacie GHARBI MEJDI HAJER,ETTADHAMEN,"36.830897,10.168511","68, Av 105 ARIANA ETTADHAMEN",71545064,DAY
Pharmacie HAJJAR FTATI AHLEM,ETTADHAMEN,"36.840037,10.102856",Rue 105 ARIANA ETTADHAMEN,71546029,DAY
Pharmacie SOUABNI MONGI,INTILAKA,"36.834196,10.102856",Rte DE BIZERTE Km 3 ARIANA INTILAKA,71548191,DAY
Pharmacie BARBOUCHE MOHAMED RIDHA,INTILAKA,"36.848461,10.102856",Rte DE BIZERTE Km 5 ARIANA INTILAKA,70563534,DAY
Pharmacie MAKNI MALEK,INTILAKA,"36.840330,10.102856",Rte DE BIZERTE Km 4 ARIANA INTILAKA,71933180,DAY
Pharmacie HAMMI MOHAMED HILEL,INTILAKA,"36.843071,10.102856",Rte DE BIZERTE Km 4? ARIANA INTILAKA,71554325,DAY
Pharmacie TEJ SAFFAR LEILA,INTILAKA,"36.839542,10.102856","16, Av IBN KHALDOUN ARIANA INTILAKA",71544465,DAY
Pharmacie GAMMAR ALI,INTILAKA,"36.857017,10.102856",Rce LES PALMIERS ARIANA INTILAKA,70735230,DAY
Pharmacie TOUINSI NAJLA,INTILAKA,"36.838491,10.102856","52, Av IBN KHALDOUN ARIANA INTILAKA",71544308,DAY
Pharmacie BRAHAM BEN ALAYA FELLA,KALAAT ANDALOUS,"37.062514,10.102856",Av HAMDA ISSAOUI ARIANA KALAAT ANDALOUS,70569101,DAY
Pharmacie AYADI FADHILA,KALAAT ANDALOUS,"37.059016,10.110617","112, Av HABIB BOURGUIBA ARIANA KALAAT ANDALOUS",71558423,DAY
Pharmacie KALAI MOHAMED NEJIB,KALAAT ANDALOUS,"37.061880,10.110617",Rue RAOUDHA? ARIANA KALAAT ANDALOUS,71558167,DAY
Pharmacie DRIDI CHERIF LEILA,LA SOUKRA,"36.873371,10.110617","144, Av DE L'UMA ARIANA LA SOUKRA",70944810,DAY
Pharmacie HASSINE MOHEDDINE,LA SOUKRA,"36.879429,10.110617","53, Av FATOUMA BOURGUIBA ARIANA LA SOUKRA",71868642,DAY
Pharmacie KHALFALLAH FATMA,LA SOUKRA,"36.876102,10.110617",Rte DE CHOTRANA? ARIANA LA SOUKRA,70697394,DAY
Pharmacie BEN AISSA BEN AMMAR CHIRAZ,LA SOUKRA,"36.867080,10.110617","67, Av DAR FADHAL ARIANA LA SOUKRA",71759945,DAY
Pharmacie BEL HADJ HASSINE NAZIHA,LA SOUKRA,"36.864612,10.110617",Av de l'UMA - Imm IMEN ARIANA LA SOUKRA,70683710,DAY
Pharmacie MESSAAD MAALEJ MONIA,LA SOUKRA,"36.869822,10.110617",CITE HEDI NOUIRA - Imm INES ARIANA LA SOUKRA,70697190,DAY
Pharmacie KALAI BAYOUDH RAOUDHA,LA SOUKRA,"36.864076,10.252726",Av DAR FADHAL - Rce ELYES ARIANA LA SOUKRA,70947999,DAY
Pharmacie DRISS MOHAMED,LA SOUKRA,"36.871450,10.252726","29, Av DE LA MOSQUEE ERRAOUDHA ARIANA LA SOUKRA",70682010,DAY
Pharmacie HAMDOUN LARGUECHE NEILA,LA SOUKRA,"36.874970,10.252726","157, Av UMA ARIANA LA SOUKRA",71764052,DAY
Pharmacie ALOULOU AMMAR KHEDIJA,MENZAH,"36.847585,10.252726",CITE JAMIL - MENZAH 6 ARIANA MENZAH,71754731,DAY
Pharmacie BEN CHEIKH BOUBAKER NADIA,MENZAH,"36.848745,10.252726","8, Av D'AFRIQUE - MENZAH 5 ARIANA MENZAH",71234626,DAY
Pharmacie BARGHOUTHI BOUGATEF MOUHIBA,MENZAH,"36.845812,10.252726","151, Av OTHMANE IBN AFFENE - MENZAH 6 ARIANA MENZAH",71231340,DAY
Pharmacie GAAFAR RAJA,MENZAH,"36.848761,10.252726","38, Av DE LA LIBERTE - MENZAH 5 ARIANA MENZAH",71766110,DAY
Pharmacie HANNACHI KHEDIJA,MENZAH,"36.854780,10.252726","15, Av M. IBN ABI SOFIENE - MENZAH 5 ARIANA MENZAH",71235421,DAY
Pharmacie KESRAOUI SOUHEIL,MENZAH,"36.855364,10.252726","48 bis, Av OTHMAN IBN AFFEN - MENZAH 8 ARIANA MENZAH",71700595,DAY
Pharmacie MEDDEB KHROUF RAFIDA,MENZAH,"36.849707,10.252726","12, Av AMMAR IBN YASSER - MENZAH 6 ARIANA MENZAH",71233559,DAY
Pharmacie ABDENNEBI NAKKOURI LILIA,MENZAH,"36.849542,10.17492","14, Av DE LA LIBERTE - MENZAH 5 ARIANA MENZAH",71766218,DAY
Pharmacie KILANI SAMIRA,MENZAH,"36.851597,10.17492","112, Av M. IBN ABI SOFIENE - MENZAH 7 ARIANA MENZAH",71233595,DAY
Pharmacie MHIRI TURKI IKBEL,MENZAH,"36.852628,10.17492",Av MOUAWIA IBN ABI SOFIENE - MENZAH 7 ARIANA MENZAH,71230726,DAY
Pharmacie BCHINI NOUR EL HOUDA,RAOUED,"36.908353,10.17492","136, Rte DE RAOUED ARIANA RAOUED",70687385,DAY
Pharmacie CHEKRI NADHEM,RAOUED,"36.888869,10.17492","128, Av FETHI ZOUHIR ARIANA RAOUED",71856340,DAY
Pharmacie MEDDEB TARDI LEILA,RAOUED,"36.879327,10.17492","11, Rce EL OMRANE 1 ARIANA RAOUED",70935537,DAY
Pharmacie MNIF BEJAR FATMA,RAOUED,"36.891297,10.17492","76, Av HABIB BOURGUIBA ARIANA RAOUED",71756721,DAY
Pharmacie BEN YAHMED BEN HADJ WASSILA,RAOUED,"36.878047,10.17492","35, Av FETHI ZOUHIR ARIANA RAOUED",71763866,DAY
Pharmacie BENNANI MZAH EMNA,RAOUED,"36.904678,10.17492",Rte DE RAOUED ARIANA RAOUED,71878899,DAY
Pharmacie HAMMAMI CYRINE,RAOUED,"36.890223,10.17492","5, Av HABIB BOURGUIBA ARIANA RAOUED",71866172,DAY
Pharmacie OUESLATI NEJIB,RAOUED,"36.900322,10.180579",Rte RAOUED Km 5 ARIANA RAOUED,71866347,DAY
Pharmacie KRIAA NABIL,RAOUED,"36.890403,10.180579","33 bis, Av ARISTOTE ARIANA RAOUED",71757752,DAY
Pharmacie MEDDEB HILA FATMA,RAOUED,"36.881068,10.180579","65, Av FETHI ZOUHIR ARIANA RAOUED",71762559,DAY
Pharmacie AYED JIHENE,RAOUED,"36.941635,10.180579","342, CITE CHAKER ARIANA RAOUED",70684924,DAY
Pharmacie ELOUATI SAMIA,RAOUED,"36.889522,10.180579",Av HABIB BOURGUIBA ARIANA RAOUED,71877939,DAY
Pharmacie HEDFI ROUAHI RADHIA,RAOUED,"36.899780,10.180579","18, Rue H. IBN ABDELMOTTALEB ARIANA RAOUED",71685500,DAY
Pharmacie OUANES KILANI SAMIRA,RAOUED,"36.885128,10.180579","104, Av FETHI ZOUHIR ARIANA RAOUED",71858176,DAY
Pharmacie BELGHITH NOUREDDINE,RAOUED,"36.889831,10.180579","41, Av HABIB BOURGUIBA ARIANA RAOUED",71762001,DAY
Pharmacie HAMMAMI AMMAR IMEN,RAOUED,"36.896988,10.180579","Rte DE RAOUED, Imm GALAXY ARIANA RAOUED",71857169,DAY
Pharmacie MAHFOUDH SOUHIR EP DAGDOUG,RAOUED,"36.884213,10.184108",Av FATHI ZOUHIR ARIANA RAOUED,71763664,DAY
Pharmacie SMIDA HAMZA NEIRA,RAOUED,"36.910330,10.184108",Rte DE RAOUED Km 12 ARIANA RAOUED,71769707,DAY
Pharmacie BEN OTHMAN TAIEB,SIDI THABET,"36.90907405991976,10.184108",Av 14 JANVIER ARIANA SIDI THABET,71552106,DAY
Pharmacie ABDELMOULA AHMED ,ARIANA VILLE,"36.852673,10.184108","71, Av HABIB BOURGUIBA ARIANA ARIANA VILLE",71716297,DAY
Pharmacie AZOUZI NESSIMA EP LANDOULSI,RAOUED,"36.954382,10.184108","Rte PLAGE, KM 10 ARIANA RAOUED",71769248,DAY
Pharmacie MZAH SELIMA,LA SOUKRA,"36.862343,10.184108",Rue CHEIKH ENNEIFER - Rce ZAYATINE ARIANA LA SOUKRA,71758111,DAY
Pharmacie DHOUIB MASMOUDI SANA,INTILAKA,"36.864960,10.117143",Rte DE BIZERTE Km 7 ARIANA INTILAKA,70564555,DAY
Pharmacie ROUISSI BEN NEJIMA SAIDA,AEROPORT,"36.847878,10.217696",AEROPORT TUNIS CARTHAGE TUNIS AEROPORT,71783880,DAY
Pharmacie HAMDI ABDELHAKIM,AIN ZAGHOUANE,"36.855584,10.217696","Rce ESSALEM, JARDINS DE CARTHAGE TUNIS AIN ZAGHOUANE",71667082,DAY
Pharmacie DARGHOUTH DALILA,AIN ZAGHOUANE,"36.861747,10.217696","114, Rue CHEIKH ENNEIFER TUNIS AIN ZAGHOUANE",70736068,DAY
Pharmacie ZNAZEN OLFA,AIN ZAGHOUANE,"36.859654,10.217696","84, Av CARTHAGE TUNIS AIN ZAGHOUANE",36168798,DAY
Pharmacie AMMAR ZIED,AIN ZAGHOUANE,"36.864263,10.217696",Rce L'HORIZON TUNIS AIN ZAGHOUANE,70723833,DAY
Pharmacie BOUSNINA JANFAOUI MAHA,AIN ZAGHOUANE,"36.859108,10.217696",Av K. IBN WALID - Rce DIAR SOUKRA TUNIS AIN ZAGHOUANE,70727260,DAY
Pharmacie BEN BRAHIM NEDRA,AIN ZAGHOUANE,"36.857175,10.217696",Rue OSMAN BAHRI TUNIS AIN ZAGHOUANE,71761967,DAY
Pharmacie PHARMACIE EL WAHAT KHEDER + HELALI,AIN ZAGHOUANE,"36.857691,10.217696",76 Av KHALED IBN EL WALID TUNIS AIN ZAGHOUANE,70855017,DAY
Pharmacie HARZALLAH LOUATI INES,AIN ZAGHOUANE,"36.860587,10.217696",Av K. IBN WALID - Rce FATIMIDE TUNIS AIN ZAGHOUANE,70727452,DAY
Pharmacie BASTI YOUSSEFI LATIFA,BARDO,"36.812725,10.136559","1, Rue FATTOUMA BOURGUIBA TUNIS BARDO",71582581,DAY
Pharmacie BOUATTOUR MOHAMED,BARDO,"36.812990,10.136559","63, Av HABIB BOURGUIBA TUNIS BARDO",71585406,DAY
Pharmacie LAOUITI MOHAMED HEDHILI,BARDO,"36.803559,10.136559","38, Av HEDI CHAKER TUNIS BARDO",71513648,DAY
Pharmacie TURKI MAJED,BARDO,"36.807993,10.136559","129, Bd 20 MARS TUNIS BARDO",71515830,DAY
Pharmacie GHEDIRA MILI LEILA,BARDO,"36.813005,10.136559","24, Av MONGI SLIM TUNIS BARDO",71516039,DAY
Pharmacie MESTIRI AYARI ATEF SOUAD,BARDO,"36.806423,10.136559","1, Rue MUSTAPHA KHRAIEF TUNIS BARDO",71509254,DAY
Pharmacie SOMRANI LARGHECHE SOUAD,BARDO,"36.805458,10.136559","41, Av DE L'INDEPENDANCE TUNIS BARDO",71510308,DAY
Pharmacie ZOUAIDI HASSEN,BARDO,"36.809858,10.136559","5 bis, Av HABIB BOURGUIBA TUNIS BARDO",71221413,DAY
Pharmacie BEN GHACHEM BEN JAAFAR AZZA,BARDO,"36.804810,10.136559",Av DE L'INDEPENDANCE TUNIS BARDO,71512003,DAY
Pharmacie MELLOULI GORGI IMEN,BARDO,"36.808124,10.136559","2, Av HABIB BOURGUIBA TUNIS BARDO",71511795,DAY
Pharmacie NEFZI ZEINEB,BARDO,"36.819573,10.140052",Av HABIB BOUGATFA TUNIS BARDO,71509148,DAY
Pharmacie FERKTAJI MOULDI DALENDA,BARDO,"36.820158,10.140052","3, Rue DE CASABLANCA TUNIS BARDO",71516664,DAY
Pharmacie MBARKI MOHAMED TABRIZI,BARDO,"36.801415,10.140052","62, Rue BAYREM ETTOUSI TUNIS BARDO",71583686,DAY
Pharmacie SKHIRI HAMDANI NABILA,BARDO,"36.809033,10.140052","81, Bd DU 20 MARS TUNIS BARDO",71580111,DAY
Pharmacie ZOUAIDI HOUCINE,BARDO,"36.809251,10.140052",BARDO CENTER TUNIS BARDO,71500050,DAY
Pharmacie GARRAM HATEM,BARDO,"36.811026,10.140052","36, Av HABIB BOUGATFA TUNIS BARDO",71507516,DAY
Pharmacie HAJJAM SLAHEDDINE,BARDO,"36.811747,10.140052","41, Av HABIB BOURGUIBA TUNIS BARDO",71220750,DAY
Pharmacie LARGUECHE LAMIA,BARDO,"36.807073,10.140052",Rue BAYREM ETTOUNSI et Av DE L'INDEPENDANCE TUNIS BARDO,71514330,DAY
Pharmacie ABBASSI BHOURI CAMILIA,BERGES DU LAC I,"36.835541,10.140052",Rue DU LAC DE COME - Rce SIDI MANSOUR TUNIS BERGES DU LAC I,71655260,DAY
Pharmacie AZZOUZ MOHAMED,BERGES DU LAC I,"36.837793,10.140052",Rue TAHAR HADDED - Imm EL HABIB TUNIS BERGES DU LAC I,71964634,DAY
Pharmacie BOUZOUITA MOUFIDA,BERGES DU LAC I,"36.838590,10.238940","1, Rue DU LAC LEMAN TUNIS BERGES DU LAC I",71862805,DAY
Pharmacie BEN CHEIKH BOUBAKER TAREK,BERGES DU LAC I,"36.833122,10.238940",Rue Lac LADOGA et Rue Lac TURKANA TUNIS BERGES DU LAC I,71962363,DAY
Pharmacie KHARRAZ CHELBI MERIEM,BERGES DU LAC I,"36.836529,10.238940",Rue DU LAC MALAREN TUNIS BERGES DU LAC I,71861140,DAY
Pharmacie CHENCHAH BEN HAMZA HEDIA,BERGES DU LAC I,"36.831296,10.238940",PASSAGE DU LAC INARI - Rce DES 2 LACS TUNIS BERGES DU LAC I,71961064,DAY
Pharmacie JAZI SAMIA,BERGES DU LAC I,"36.839524,10.238940",Rue LAC VICTORIA - Rce EL BOUHAIRA TUNIS BERGES DU LAC I,71860040,DAY
Pharmacie FARAH SLIM,BERGES DU LAC II,"36.845474,10.238940",LAC MEDICAL CENTER TUNIS BERGES DU LAC II,71735220,DAY
Pharmacie ESCHADELY SADRI,BERGES DU LAC II,"36.844011,10.238940",Rue FEUILLE D'ERABLE - Imm NESMET EL BOUHAIRA TUNIS BERGES DU LAC II,70039222,DAY
Pharmacie AZZOUZI FERIEL,BERGES DU LAC II,"36.845237,10.238940",Rue FEUILLE D'ERABLE - Imm DREAM TUNIS BERGES DU LAC II,71267132,DAY
Pharmacie SOUAI DHAOU CHELBIA,BERGES DU LAC II,"36.848333,10.238940",Av DE LA BOURSE - Imm MIMOSA TUNIS BERGES DU LAC II,71190007,DAY
Pharmacie BEJI MONIA,CARTHAGE,"36.861536,10.238940","126, Av HABIB BOURGUIBA TUNIS CARTHAGE",71980480,DAY
Pharmacie HENCHIRI MOURAD,CARTHAGE,"36.849871,10.326206",CENTRE COMMERCIAL CARTHAGE DERMECHE TUNIS CARTHAGE,71275683,DAY
Pharmacie HALIOUI MONIA,CARTHAGE,"36.846327,10.326206","8 bis, Av DE L'INDEPENDANCE TUNIS CARTHAGE",71720663,DAY
Pharmacie MASMOUDI MOHAMED WALID,CENTRE URBAIN NORD,"36.848691,10.326206",PROMED BUILDING TUNIS CENTRE URBAIN NORD,71947359,DAY
Pharmacie KAMMOUN NARJES,CENTRE URBAIN NORD,"36.844318,10.326206",Imm MALEK TUNIS CENTRE URBAIN NORD,71948145,DAY
Pharmacie FRINI CHAKER,CENTRE URBAIN NORD,"36.846690,10.326206",Rce NOUR CITY TUNIS CENTRE URBAIN NORD,71949140,DAY
Pharmacie PHARMACIE REKIK,CHARGUIA,"36.833173,10.326206","42, Rue 8600 TUNIS CHARGUIA",71807158,DAY
Pharmacie AJOUA AHMED,CITE EL KHADHRA,"36.831137,10.326206","2, Rue OMAR BEN CHEIKH TUNIS CITE EL KHADHRA",71773438,DAY
Pharmacie ARIANE DORRA,CITE EL KHADHRA,"36.832166,10.326206","2, Rue DE LA JEUNESSE TUNIS CITE EL KHADHRA",71773021,DAY
Pharmacie BELLIL NOUREDDINE,CITE EL KHADHRA,"36.833452,10.326206","112, Av LOUIS BRAILLE TUNIS CITE EL KHADHRA",71770233,DAY
Pharmacie BOUDHRAA KHIARI NEJIBA,CITE EL KHADHRA,"36.829115,10.191022","1, Rue MOHAMED CHENIK TUNIS CITE EL KHADHRA",71807561,DAY
Pharmacie GHORBEL SALIMA,CITE EL KHADHRA,"36.836298,10.191022","28, Rue 8714 TUNIS CITE EL KHADHRA",71894135,DAY
Pharmacie BEN JANNET FATMA,CITE EL KHADHRA,"36.835118,10.191022","14 bis, Rue ABDERRAHMEN GHARIANI TUNIS CITE EL KHADHRA",71771691,DAY
Pharmacie KARRAY HOUSSEM,CITE EL KHADHRA,"36.829920,10.191022","92, Av Louis Braille TUNIS CITE EL KHADHRA",71806553,DAY
Pharmacie KAMMOUN MAHMOUD,CITE EL KHADHRA,"36.825857,10.191022",Rte X2 - Imm El HAKIM TUNIS CITE EL KHADHRA,71902777,DAY
Pharmacie JELLOULI KLIBI MONIA,CITE MHIRI,"36.854416,10.191022","46, Av HABIB BOURGUIBA TUNIS CITE MHIRI",71725283,DAY
Pharmacie HAMOUDA NAJET,CITE MHIRI,"36.852679,10.191022","4, Av MONGI SLIM - Rce SOLTAN TUNIS CITE MHIRI",70855855,DAY
Pharmacie BAKLOUTI JALELEDDINE,CITE MHIRI,"36.849406,10.191022","5, Av HABIB BOURGUIBA TUNIS CITE MHIRI",71724301,DAY
Pharmacie BELHEDI SAMIA,CITE MHIRI,"36.859499,10.191022",Av DAR FADHAL - Rce LES EMERAUDES TUNIS CITE MHIRI,71760677,DAY
Pharmacie BEN KHEDHER BEN NEJI SOUKEINA,EL MENZAH,"36.844951,10.183415",Av DU 10 DECEMBRE - IMM SAADI TUNIS EL MENZAH,71233789,DAY
Pharmacie BAHRI KHALED,EL OMRANE,"36.818273,10.183415","10, Rue AHMED CHAWKI TUNIS EL OMRANE",71959229,DAY
Pharmacie HMAIDI LATIFA,EL OMRANE,"36.819931,10.183415","161, Rue DES OLIVIERS TUNIS EL OMRANE",71896489,DAY
Pharmacie TABKA RACHED,EL OMRANE,"36.817428,10.183415","24, Rue DES OLIVIERS TUNIS EL OMRANE",71896240,DAY
Pharmacie BEL HADJ YAHIA MONCEF,EL OUERDIA,"36.772226,10.183415","11, Rue NICOLAS BERANGER TUNIS EL OUERDIA",71494495,DAY
Pharmacie HAMDI TAOUFIK,EL OUERDIA,"36.769907,10.183415","49, Av DU 3 AOUT TUNIS EL OUERDIA",71494158,DAY
Pharmacie CHAMMARI MEKKI HANEN,EL OUERDIA,"36.772097,10.183415",Av DU 15 OCTOBRE TUNIS EL OUERDIA,71493771,DAY
Pharmacie JALEL ABDALLAH,EL OUERDIA,"36.780403,10.183415","23, Av DE BELLEVUE TUNIS EL OUERDIA",71399214,DAY
Pharmacie MEMMI EL AYEB AFEF,EL OUERDIA,"36.775502,10.183415","84, Av DE BELLEVUE TUNIS EL OUERDIA",71397071,DAY
Pharmacie BEN ZINA SLIM,ETTAHRIR,"36.824833,10.183415","15, Rue IBN NIZAR TUNIS ETTAHRIR",71223418,DAY
Pharmacie FRIKHA CHOKRI,ETTAHRIR,"36.832826,10.124215",Rue 6851 TUNIS ETTAHRIR,71927478,DAY
Pharmacie SAHLI ACHOUR BOUTHEINA,ETTAHRIR,"36.832411,10.124215",Rte DE BIZERTE Km 3 - Rce ZARROUK TUNIS ETTAHRIR,71503544,DAY
Pharmacie ZAHAR MOHAMED TAHER,ETTAHRIR,"36.826356,10.124215","6, Rue IBN NASR TUNIS ETTAHRIR",71223455,DAY
Pharmacie CHEMLI FAOUZI,ETTAHRIR,"36.824450,10.124215","13, Rue ESSOUFI TUNIS ETTAHRIR",71223123,DAY
Pharmacie LAZREG MALIKA,ETTAHRIR,"36.830547,10.124215",MC 130 - Rce ESSADAKA TUNIS ETTAHRIR,71506782,DAY
Pharmacie GRASSA MOHAMED KAMEL,ETTAHRIR,"36.823487,10.124215",CENTRE COMMERCIAL TUNIS ETTAHRIR,71581555,DAY
Pharmacie SNOUSSI KOUBAA LEILA,ETTAHRIR,"36.818279,10.124215","8, Av MONGI SLIM - Ksar Said 2 TUNIS ETTAHRIR",71516508,DAY
Pharmacie CHICHTI RACHED,EZZOUHOUR,"36.796751,10.124215","61, Av 13 AOUT TUNIS EZZOUHOUR",71221945,DAY
Pharmacie FENDRI CHEDLI,EZZOUHOUR,"36.798727,10.124215","93, Rue SABRA ET CHATILA TUNIS EZZOUHOUR",71528151,DAY
Pharmacie KHABTHANI FAROUK,EZZOUHOUR,"36.794444,10.124215",Rue SABRA ET CHATILA TUNIS EZZOUHOUR,71529614,DAY
Pharmacie PHARMACIE KSOURI,EZZOUHOUR,"36.796013,10.138486","1, Rue 4001 TUNIS EZZOUHOUR",71529902,DAY
Pharmacie MAALEJ ELLOUMI RYM,EZZOUHOUR,"36.797180,10.138486","21 bis, Rue DU 13 AOUT TUNIS EZZOUHOUR",71508403,DAY
Pharmacie MELLOULI MAHMOUD,EZZOUHOUR,"36.793544,10.138486","109, Rue 4001 TUNIS EZZOUHOUR",71596822,DAY
Pharmacie BEN MAHMOUD LILIA,HRAIRIA,"36.788553,10.138486",Av EL HRAIRIA TUNIS HRAIRIA,71529777,DAY
Pharmacie FAKHFAKH ALI,HRAIRIA,"36.792274,10.138486","61, Av ENNAKHIL TUNIS HRAIRIA",71599118,DAY
Pharmacie GRINA HABIBA,HRAIRIA,"36.787702,10.138486","116, Rue 4128 TUNIS HRAIRIA",71528631,DAY
Pharmacie TURKI SIHEM,HRAIRIA,"36.789906,10.138486","187 bis, Rue HOUCINE DEY TUNIS HRAIRIA",71646375,DAY
Pharmacie BEN SLIMANE DORSAF,HRAIRIA,"36.790353,10.138486","27, Rue TAHAR MEJRI TUNIS HRAIRIA",71529418,DAY
Pharmacie BENNOUR DALENDA,HRAIRIA,"36.783874,10.138486","33, Rue 4667 TUNIS HRAIRIA",71598335,DAY
Pharmacie TAABOURI MAROUENE,HRAIRIA,"36.794859,10.138486",Rue 4366 TUNIS HRAIRIA,71938735,DAY
Pharmacie BEN SALEM ANOUAR LANDA,HRAIRIA,"36.791075,10.121268","4, Av EL HRAIRIA TUNIS HRAIRIA",71526960,DAY
Pharmacie CHAABOUNI MOHAMED ADEL,HRAIRIA,"36.798668,10.121268",Rte DU KEF TUNIS HRAIRIA,71938695,DAY
Pharmacie LANDOLSI BOUTHEINA,HRAIRIA,"36.789562,10.121268",Av DES PALMIERS TUNIS HRAIRIA,71599465,DAY
Pharmacie AOUINI BERRICHE AROUA,IBN KHALDOUN,"36.835265,10.121268","38, Rue 6670 TUNIS IBN KHALDOUN",71925415,DAY
Pharmacie BEN TKHAYAT ABDELKERIM,IBN KHALDOUN,"36.826800,10.121268","14 bis, Av EL FAOUZ TUNIS IBN KHALDOUN",71924436,DAY
Pharmacie LAOUANI CHERIFA,IBN KHALDOUN,"36.839740,10.121268","36, Rue SALAH JEBLA TUNIS IBN KHALDOUN",71924318,DAY
Pharmacie SNOUSSI BEN OTHMEN HOUDA,IBN KHALDOUN,"36.837379,10.121268","2, Rue 6979 TUNIS IBN KHALDOUN",71920273,DAY
Pharmacie TOUMI AIDA,IBN KHALDOUN,"36.825036,10.121268","74, Av EL FAOUZ TUNIS IBN KHALDOUN",71922031,DAY
Pharmacie MEHREZ ALIA,IBN KHALDOUN,"36.828976,10.121268",Rue 6597 TUNIS IBN KHALDOUN,71929347,DAY
Pharmacie CHERIF SONIA,JEBEL JELLOUD,"36.770667,10.121268","144, Rue 9042 TUNIS JEBEL JELLOUD",71490206,DAY
Pharmacie OUERGHI ABDELMAJID,JEBEL JELLOUD,"36.771114,10.202278","42, Rue SKIKDA TUNIS JEBEL JELLOUD",71397815,DAY
Pharmacie JEMMALI RACHIDA,JEBEL JELLOUD,"36.764865,10.202278","87, Rue 9007 TUNIS JEBEL JELLOUD",71483879,DAY
Pharmacie BEN HAMIDA FATMA,KABBARIA,"36.760209,10.202278","11, Rue 10114 TUNIS KABBARIA",71492035,DAY
Pharmacie KHEMIRI LASSAAD,KABBARIA,"36.760924,10.202278","3, Rue 10236 TUNIS KABBARIA",71371754,DAY
Pharmacie BELKACEM SLAH,KABBARIA,"36.760824,10.202278",MARCHE EL KABBARIA TUNIS KABBARIA,71494053,DAY
Pharmacie CHALA MOHAMED,KABBARIA,"36.760253,10.202278","70, Rue MAOUSSILI TUNIS KABBARIA",71372810,DAY
Pharmacie GUENAIEN LOTFI,KABBARIA,"36.759483,10.202278","17, Rue 10656 TUNIS KABBARIA",71370550,DAY
Pharmacie SMAOUI HAMDI AMEL,LA GOULETTE,"36.819835,10.202278","62, Av HABIB BOURGUIBA TUNIS LA GOULETTE",71735684,DAY
Pharmacie CHELFOUH ABDELHAMID,LA GOULETTE,"36.816329,10.202278","3, Av ROOSEVELT TUNIS LA GOULETTE",71735232,DAY
Pharmacie BEN SLAMA ZOUARI LEILA,LA MARSA,"36.889663,10.202278","60, Av TAIEB MHIRI TUNIS LA MARSA",71774754,DAY
Pharmacie DJAIT BARAKAT ZEINEB,LA MARSA,"36.881549,10.321595","12, Rue MOHAMED ALI TUNIS LA MARSA",71775963,DAY
Pharmacie LOUZIR BEN MESSAOUD AIDA,LA MARSA,"36.866344,10.321595",CENTRE COMMERCIAL CARREFOUR TUNIS LA MARSA,71779075,DAY
Pharmacie BELKHOUJA LAAOUITI EYA,LA MARSA,"36.882175,10.321595","1, Rue DU 13 AOUT TUNIS LA MARSA",71740775,DAY
Pharmacie CHAMAKH SABBAGH JALILA,LA MARSA,"36.884175,10.321595","129, Rue HEDI CHAKER TUNIS LA MARSA",71729611,DAY
Pharmacie DARGHOUTH MANNOUBI,LA MARSA,"36.876645,10.321595","7, Av DE LA REPUBLIQUE TUNIS LA MARSA",71980857,DAY
Pharmacie KAHIA SLIMANE,LA MARSA,"36.888463,10.321595","60, Rue DU KOWEIT TUNIS LA MARSA",71743112,DAY
Pharmacie BOUAZIZ LOBNA,LA MARSA,"36.886029,10.321595","37, Av TAIEB MHIRI TUNIS LA MARSA",71748471,DAY
Pharmacie NAJJAR ZIED,LA MARSA,"36.876306,10.321595","16, Av DE L'INDEPENDANCE TUNIS LA MARSA",71775094,DAY
Pharmacie BEN AYED FARAH,LA MARSA,"36.885481,10.321595","104, Av HEDI CHAKER TUNIS LA MARSA",71775574,DAY
Pharmacie MAOUSILI MEHERZI IBTISSEM,LA MARSA,"36.904761,10.321595","64 bis, Av DE L'ENVIRONNEMENT TUNIS LA MARSA",71918697,DAY
Pharmacie PHARMACIE ZMERLI,LA MARSA,"36.879319,10.327668","3, PLACE MONCEF BEY TUNIS LA MARSA",71746301,DAY
Pharmacie BENZARTI CHAYATA LATIFA,LA MARSA,"36.866897,10.327668","2, Rue IMAM MAZRI TUNIS LA MARSA",71779500,DAY
Pharmacie FARHAT ALI,LA MARSA,"36.884541,10.327668","48, Rue IMAM IBN ARAFA TUNIS LA MARSA",71982665,DAY
Pharmacie MELLOULI MABROUK DONIA,LA MARSA,"36.882254,10.327668",Rue DE LA MOSQUEE TUNIS LA MARSA,71747144,DAY
Pharmacie CHEKIR AIDA,LA MARSA,"36.878076,10.327668",Rue EZZINE BEN ACHOUR TUNIS LA MARSA,71740444,DAY
Pharmacie EZZINE GHANNOUCHI IMENE,LA MARSA,"36.883898,10.327668","27, Rue EL MEKKI TUNIS LA MARSA",71748574,DAY
Pharmacie BEN YAHIA AMEL,LA MARSA,"36.878184,10.327668",Rue CHARLES de GAULLE TUNIS LA MARSA,70692401,DAY
Pharmacie HABABOU GHARIANI FAIKA,LA MARSA,"36.884317,10.327668",Av HABIB BOURGUIBA TUNIS LA MARSA,71728200,DAY
Pharmacie RAIS ZOUITEN IBTISSEM,LA MARSA,"36.879518,10.327668","5, Rue ABDELAZIZ CHTIOUI TUNIS LA MARSA",71775416,DAY
Pharmacie BEN FADHLOUN SAMI,LA MARSA,"36.876278,10.317113",Rue DU STADE - Imm YASMINE TUNIS LA MARSA,71743317,DAY
Pharmacie BEN MARZOUK BASMA,LA MARSA,"36.882481,10.317113",Av TAIEB MHIRI TUNIS LA MARSA,71775715,DAY
Pharmacie MGHANEM HOUDA,LA MARSA,"36.887285,10.317113",Rte DE GAMMARTH - Rce SABRINA TUNIS LA MARSA,71917940,DAY
Pharmacie DARMOUL CHERIF,LE KRAM,"36.841609,10.317113","16, Rue ERRIADH TUNIS LE KRAM",71971351,DAY
Pharmacie SNOUSSI KHALED,LE KRAM,"36.836324,10.317113","31, Rue DES MARTYRS TUNIS LE KRAM",71973191,DAY
Pharmacie ZOUITEN HABIB,LE KRAM,"36.832995,10.317113","177, Av HABIB BOURGUIBA TUNIS LE KRAM",71276369,DAY
Pharmacie BELAJOUZA RACHID,LE KRAM,"36.835700,10.317113","274, Av HABIB BOURGUIBA TUNIS LE KRAM",71275139,DAY
Pharmacie BEN ABDALLAH ANIS,LE KRAM,"36.840967,10.317113","49, Av FARHAT HACHED TUNIS LE KRAM",71970603,DAY
Pharmacie ENNAIFER MOHAMED MONDHER,LE KRAM,"36.839693,10.317113","74 bis, Av FARHAT HACHED TUNIS LE KRAM",71975260,DAY
Pharmacie GHARBI TABKA HOUDA,LE KRAM,"36.836983,10.317113","23, Rue HOUCINE BOUZAYENE TUNIS LE KRAM",71276822,DAY
Pharmacie MELLOULI GHARIANI SONIA,LE KRAM,"36.843295,10.316120","3 bis, Av FARHAT HACHED TUNIS LE KRAM",71977847,DAY
Pharmacie BAKLOUTI HICHEM,LE KRAM,"36.838727,10.316120",Av HABIB BOURGUIBA TUNIS LE KRAM,71720728,DAY
Pharmacie LAZAAR LAZRAG AICHA,LE KRAM,"36.842057,10.316120","29, Av FARHAT HACHED TUNIS LE KRAM",71971053,DAY
Pharmacie MESSAADI BEY AMEL FAOUZIA,LE KRAM,"36.830123,10.316120","143, Av HABIB BOURGUIBA  TUNIS LE KRAM",71275979,DAY
Pharmacie NAJJAR LOTFI,LE KRAM,"36.846679,10.316120",YASMINA TUNIS LE KRAM,71985825,DAY
Pharmacie ACHOUR AMRI SOUAD,MANAR,"36.839630,10.316120","10, Av TAHAR BEN AMMAR TUNIS MANAR",71883527,DAY
Pharmacie BEN CHAABANE SALAH,MANAR,"36.835523,10.316120",Av HABIB CHATTI - DELTA MEDICAL TUNIS MANAR,71870835,DAY
Pharmacie CHEHATA MHAMED,MANAR,"36.837046,10.316120",CENTRE PHENICIA TUNIS MANAR,71880035,DAY
Pharmacie DJAIBI TLEMCANI NEJIBA,MANAR,"36.835026,10.316120",Imm LE CAMPUS TUNIS MANAR,71874463,DAY
Pharmacie FAKHFAKH KRICHEN LEILA,MANAR,"36.850822,10.316120",Rce LES PYRENEES TUNIS MANAR,70865209,DAY
Pharmacie FAZAA HEDI,MANAR,"36.839236,10.160256","36, Av du ROI ABDELAZIZ TUNIS MANAR",71883509,DAY
Pharmacie KARRAY TAREK,MANAR,"36.841482,10.160256","32, Av MOHEIDDIENE KLIBI TUNIS MANAR",71889633,DAY
Pharmacie BEN MARZOUK IBTISSEM,MANAR,"36.835030,10.160256",Av HABIB CHATTI TUNIS MANAR,71884317,DAY
Pharmacie MESTIRI ZELIZI KHEDIJA,MANAR,"36.835327,10.160256","4, Rue 7400 - Rce HANNIBAL TUNIS MANAR",70861333,DAY
Pharmacie MRABET MILADI NEDRA,MANAR,"36.838009,10.160256",COLISEE SOULA TUNIS MANAR,71884015,DAY
Pharmacie SASSI KHALED,MANAR,"36.840419,10.160256","2, Av TAHAR SFAR TUNIS MANAR",71875853,DAY
Pharmacie ZAHAR MOUAFFAK AHLEM,MANAR,"36.842603,10.160256",Av DU ROI ABDELAZIZ - MAGHREB MEDICAL TUNIS MANAR,70860531,DAY
Pharmacie ZOUARI MOURAD,MANAR,"36.841935,10.160256","14, Av TAHAR SFAR TUNIS MANAR",71889242,DAY
Pharmacie JARRAYA ADEL,MELLASSINE,"36.795539,10.160256","2, Rue OMAR IBN EL KHATTAB TUNIS MELLASSINE",71563327,DAY
Pharmacie BEN MANSOUR HICHERI LATIFA,MELLASSINE,"36.799100,10.160256","131, Av MUSTAPHA KHAZNADAR TUNIS MELLASSINE",71560659,DAY
Pharmacie ABDENNADHER ESSIA,MENZAH 1,"36.835874,10.179194","14, Rue EL MOEZ TUNIS MENZAH 1",71233714,DAY
Pharmacie KARRAY ALLOUCHE NADA,MENZAH 1,"36.843110,10.179194","54 bis, Av 10 DECEMBRE TUNIS MENZAH 1",71232255,DAY
Pharmacie KASBI MOHAMED HEDI,MENZAH 1,"36.837953,10.179194","14, Av EL MENZAH TUNIS MENZAH 1",71767856,DAY
Pharmacie BEJAR MOUNIR,MENZAH 9,"36.847616,10.179194","22, Rue ALI AYARI TUNIS MENZAH 9",71888413,DAY
Pharmacie BEN GHACHEM LOTFI,MENZAH 9,"36.845971,10.179194",Av TAHAR BEN AMMAR - ESPACE MAKNI TUNIS MENZAH 9,70861034,DAY
Pharmacie HACHICHA DORRA,MENZAH 9,"36.844131,10.179194","38, Av TAHAR BEN AMMAR TUNIS MENZAH 9",71883322,DAY
Pharmacie MILADI SONIA,MENZAH 9,"36.851593,10.179194",Rue Sadok Belhadj - MARCHE MUNICIPAL TUNIS MENZAH 9,70861837,DAY
Pharmacie BEN YAHIA HABIB,MONTFLEURY,"36.784391,10.179194","27, Av ABOU ZAKARIA EL HAFSI TUNIS MONTFLEURY",71397816,DAY
Pharmacie BELLAGHA THAMEUR KAOUTHER,MONTFLEURY,"36.778079,10.179194","55, Av DU SAHEL TUNIS MONTFLEURY",71392694,DAY
Pharmacie BOUZOUITA MOHAMED ALI,MONTFLEURY,"36.774966,10.179194","89, Rue DU SAHEL TUNIS MONTFLEURY",71483384,DAY
Pharmacie CHEBBAH CHOKRI,MONTPLAISIR,"36.819528,10.190584",Rue 8300 - Imm LUXOR TUNIS MONTPLAISIR,71791126,DAY
Pharmacie BELKAHIA SIHEM,MONTPLAISIR,"36.816962,10.190584",Av DU JAPON - Imm SAFSAF TUNIS MONTPLAISIR,71902695,DAY
Pharmacie LABOUP NAOUAR MARYSE EVELYNE,MOUROUJ 2,"36.742448,10.190584",Bd DE LA MEDITERRANEE TUNIS MOUROUJ 2,71376660,DAY
Pharmacie AMOUS MOHAMED CHEDLI,MUTUELLEVILLE,"36.829754,10.190584","2, Rue BADI AZZAMAN TUNIS MUTUELLEVILLE",71287391,DAY
Pharmacie CHOUIKHA MOHAMED ABDELWAHEB,MUTUELLEVILLE,"36.836555,10.190584","2, Rue TAREK IBN ZIED TUNIS MUTUELLEVILLE",71796570,DAY
Pharmacie FENIRA TAOUFIK,MUTUELLEVILLE,"36.836353,10.190584","121, Av JUGHURTA TUNIS MUTUELLEVILLE",71891604,DAY
Pharmacie LAKHOUA NAJAH SARRA,MUTUELLEVILLE,"36.831495,10.190584",Rue DE CHERBOURG TUNIS MUTUELLEVILLE,71848213,DAY
Pharmacie MALOUCHE MOHAMED FAOUZI,MUTUELLEVILLE,"36.832535,10.190584",NORD HILTON - FACE CLINIQUE TAOUFIK TUNIS MUTUELLEVILLE,71849647,DAY
Pharmacie MSAHLI LASSAAD,MUTUELLEVILLE,"36.838618,10.190584","25, Rue AZIZA OTHMANA TUNIS MUTUELLEVILLE",71796066,DAY
Pharmacie RIAHI MOHAMED TAOUFIK,MUTUELLEVILLE,"36.827163,10.179855","37, Av CHARLES NICOLLE TUNIS MUTUELLEVILLE",71846212,DAY
Pharmacie TAIEB ABDELWAHEB,SIDI BOU SAID,"36.871005,10.179855","80, Rue SLAHEDDINE BOUCHOUCHA TUNIS SIDI BOU SAID",71747795,DAY
Pharmacie MILED BASSEM,SIDI BOU SAID,"36.86915669,10.179855",Av HABIB BOURGUIBA TUNIS SIDI BOU SAID,71741214,DAY
Pharmacie FENDRI MARIEM,SIDI HASSINE,"36.772372,10.179855","71, Rue 4850 TUNIS SIDI HASSINE",71590253,DAY
Pharmacie JARRAY ABDELMAJID,SIDI HASSINE,"36.762942,10.179855","48 bis, Rue 4883 TUNIS SIDI HASSINE",71590690,DAY
Pharmacie KECHAOU MOHAMED GHAZI,SIDI HASSINE,"36.780292,10.179855",Rte N5 TUNIS SIDI HASSINE,71559807,DAY
Pharmacie MILI MEHREZ,SIDI HASSINE,"36.775358,10.179855","5, Rue 4850 TUNIS SIDI HASSINE",71592604,DAY
Pharmacie ZAHAF SAFOUANE,SIDI HASSINE,"36.768948,10.179855",Rue 4883 TUNIS SIDI HASSINE,71934401,DAY
Pharmacie BEKDACHE ASSIA,SIDI HASSINE,"36.772041,10.179855",Av DU 14 JANVIER TUNIS SIDI HASSINE,71934000,DAY
Pharmacie HASNAOUI MONIA,SIDI HASSINE,"36.768087,10.179855","125, Rue 42800 TUNIS SIDI HASSINE",71934242,DAY
Pharmacie JEMMALI MOHAMED ABDELHAMID,SIDI HASSINE,"36.778513,10.113135",Rue 42590 TUNIS SIDI HASSINE,71935897,DAY
Pharmacie MESSAOUDIA YASSINE,SIDI HASSINE,"36.755976,10.113135",Rte ATTAR Km 7. TUNIS SIDI HASSINE,71934754,DAY
Pharmacie JERBI JEMLI WAHIBA,SIDI HASSINE,"36.781990,10.113135",Rte DE MORNAGUIA TUNIS SIDI HASSINE,71935652,DAY
Pharmacie KAMMOUN BESMA,SIDI HASSINE,"36.765462,10.113135","45 bis, Rue 4883 TUNIS SIDI HASSINE",71592684,DAY
Pharmacie LAATIL TAMBOURA INSAF,SIDI HASSINE,"36.762238,10.113135",Rue 42710 ET Rue 40850 TUNIS SIDI HASSINE,71591410,DAY
Pharmacie LAKHOUA RYM,SIDI HASSINE,"36.765636,10.113135",Rte DE ATTAR Km 7 TUNIS SIDI HASSINE,71225181,DAY
Pharmacie ABDELMOUMEN SLAHEDDINE,TUNIS VILLE,"36.807462,10.113135","15, Av DE MADRID TUNIS TUNIS VILLE",71252030,DAY
Pharmacie BEN AYED BEN HASSINE KHANSA,TUNIS VILLE,"36.798452,10.113135","3, Av DE CARTHAGE TUNIS TUNIS VILLE",71335643,DAY
Pharmacie BEN MARZOUK BASSEM,TUNIS VILLE,"36.809044,10.113135","29, Av DE LA LIBERTE TUNIS TUNIS VILLE",71830971,DAY
Pharmacie BSILA ALI,HRAIRIA,"36.78387,10.10950",HRAIRIA TUNIS HRAIRIA,71891910,DAY
Pharmacie CHAHED EL MUFTI FERIDA,TUNIS VILLE,"36.798480,10.10950","187 bis, Rue DE LA KASBAH TUNIS TUNIS VILLE",71260075,DAY
Pharmacie ENNAIFER HICHEM,TUNIS VILLE,"36.801771,10.10950","63, Rue MONGI SLIM TUNIS TUNIS VILLE",71256147,DAY
Pharmacie SARRAY RADHIA,TUNIS VILLE,"36.805653,10.10950","30, Av ALI BELHOUANE TUNIS TUNIS VILLE",71260409,DAY
Pharmacie TURKI YOSRI,TUNIS VILLE,"36.807021,10.10950","46, Av HEDI NOUIRA TUNIS TUNIS VILLE",71255036,DAY
Pharmacie BEL HADJ ALI SAMIR,TUNIS VILLE,"36.815528,10.10950","59, Av TAIEB MHIRI TUNIS TUNIS VILLE",71783562,DAY
Pharmacie BEN NJEH AOUIDA RIHAB,TUNIS VILLE,"36.797564,10.10950","54, Av FARHAT HACHED TUNIS TUNIS VILLE",71340797,DAY
Pharmacie DARGHOUTH RADHI,TUNIS VILLE,"36.811260,10.10950","37, Av CHEDLI KALLALA TUNIS TUNIS VILLE",71287723,DAY
Pharmacie DRIRA OTHMEN,TUNIS VILLE,"36.796090,10.10950","10, Rue D'ANGLETERRE TUNIS TUNIS VILLE",71320236,DAY
Pharmacie HAMADA OUM EL KHIR,TUNIS VILLE,"36.807695,10.10950","75, Rue BAB EL KHADHRA TUNIS TUNIS VILLE",71252095,DAY
Pharmacie MOKADDEM MOHAMED LASSAAD,TUNIS VILLE,"36.803863,10.172748","17, Rue BAB SOUIKA TUNIS TUNIS VILLE",71564684,DAY
Pharmacie OUAHCHI AMINE MAHDI,TUNIS VILLE,"36.792520,10.172748","42, Rue DE LA SABKHA TUNIS TUNIS VILLE",71332741,DAY
Pharmacie ZOUARI MALEK,TUNIS VILLE,"36.803693,10.172748","20, Av HABIB THAMEUR TUNIS TUNIS VILLE",71241992,DAY
Pharmacie BELKAHIA BOUCHOUCHA LEILA,TUNIS VILLE,"36.800518,10.172748","9, Rue D'ALGER TUNIS TUNIS VILLE",71255989,DAY
Pharmacie BEN HTIRA BEN ABDALLAH SALWA,TUNIS VILLE,"36.820974,10.172748","46, Av KHEIREDDINE PACHA TUNIS TUNIS VILLE",71909229,DAY
Pharmacie FOURATI MEHDI,MENZAH 1,"36.838503,10.172748","18, Rue ABDENNABI TUNIS MENZAH 1",71232914,DAY
Pharmacie CHEOUR SOFIENE,TUNIS VILLE,"36.799380,10.172748","1, Rue DE TURQUIE TUNIS TUNIS VILLE",71257028,DAY
Pharmacie JAZI KHALED,TUNIS VILLE,"36.814582,10.172748","77, Av DE LA LIBERTE TUNIS TUNIS VILLE",71892017,DAY
Pharmacie KAMMOUN MOHAMED,TUNIS VILLE,"36.804340,10.172748","156, Rue BAB SOUIKA TUNIS TUNIS VILLE",71560405,DAY
Pharmacie KRIFA BAHRI ZEINEB,TUNIS VILLE,"36.792112,10.172748","24, Rue BAB JEDID TUNIS TUNIS VILLE",71336865,DAY
Pharmacie OUERTANI REGAYA SAMIRA,TUNIS VILLE,"36.810773,10.163452","9, Rte DE L'ARMEE NATIONALE TUNIS TUNIS VILLE",71899232,DAY
Pharmacie TRITAR AHMED,TUNIS VILLE,"36.802461,10.163452","29, Av DE PARIS TUNIS TUNIS VILLE",71347128,DAY
Pharmacie ABID MOHAMED ALI,TUNIS VILLE,"36.806866,10.163452","6, Av DE LA LIBERTE TUNIS TUNIS VILLE",71240480,DAY
Pharmacie BEN FREDJ SAMIHA,TUNIS VILLE,"36.805205,10.163452","110, PLACE BAB SOUIKA TUNIS TUNIS VILLE",71560079,DAY
Pharmacie BEN ISMAIL CHEBIL MALIKA,TUNIS VILLE,"36.801153,10.163452","18, Rue DE ROME TUNIS TUNIS VILLE",71331031,DAY
Pharmacie CHAOUCH ABDELKADER,TUNIS VILLE,"36.816671,10.163452","79, Av HEDI CHAKER TUNIS TUNIS VILLE",71289806,DAY
Pharmacie KHABTHANI OMAR,TUNIS VILLE,"36.796861,10.163452","10, Rue D'ESPAGNE TUNIS TUNIS VILLE",71320585,DAY
Pharmacie KHABTHANI TAOUFIK,TUNIS VILLE,"36.793415,10.163452","27, Av BAB MENARA TUNIS TUNIS VILLE",71560724,DAY
Pharmacie MOALLA ISSAM,TUNIS VILLE,"36.812661,10.163452","29, Av TAIEB MHIRI TUNIS TUNIS VILLE",71289389,DAY
Pharmacie SANAA AMEL,TUNIS VILLE,"36.820574,10.163452","83, Av MOHAMED V TUNIS TUNIS VILLE",71798398,DAY
Pharmacie BEL KAALOUL MOHAMED AHMED,TUNIS VILLE,"36.794911,10.179526","3, PLACE MONGI BALI TUNIS TUNIS VILLE",71259858,DAY
Pharmacie BEN AYED KETARI SALWA,TUNIS VILLE,"36.802752,10.179526","26, Av JEAN JAURES TUNIS TUNIS VILLE",71257413,DAY
Pharmacie DJAIT MOHAMED,TUNIS VILLE,"36.801729,10.179526","32, Rue SIDI BOUHDID TUNIS TUNIS VILLE",71569494,DAY
Pharmacie KECHRID MOUNIR,TUNIS VILLE,"36.796702,10.179526","27, Rue EL JAZIRA TUNIS TUNIS VILLE",71327609,DAY
Pharmacie KHESSAIRI HABIB,MUTUELLEVILLE,"36.829904,10.179526","11, Rue MAHRAJENE TUNIS MUTUELLEVILLE",71782416,DAY
Pharmacie LASMAR ABDESSATTAR,TUNIS VILLE,"36.792187,10.179526","60, Av BAB DJEDID TUNIS TUNIS VILLE",71256790,DAY
Pharmacie SELMANE MOHAMED,TUNIS VILLE,"36.794320,10.179526","56 bis, Rue HOUCINE BOUZAIENE TUNIS TUNIS VILLE",71349456,DAY
Pharmacie TRABELSI ABDELWAHEB,TUNIS VILLE,"36.816136,10.179526","17, Av DES ETATS-UNIS TUNIS TUNIS VILLE",71892656,DAY
Pharmacie TRABELSI ADLENE,TUNIS VILLE,"36.807099,10.179526","12, Rue BELHASSINE JRAD TUNIS TUNIS VILLE",71331920,DAY
Pharmacie BEL HADJ AMMAR TAOUFIK,TUNIS VILLE,"36.790494,10.179526","50, Rue SIDI EL BECHIR TUNIS TUNIS VILLE",71253023,DAY
Pharmacie BEN AYED JARRAYA AMEL,TUNIS VILLE,"36.804386,10.163075","103, Bd DU 9 AVRIL - Imm SNIT TUNIS TUNIS VILLE",71570700,DAY
Pharmacie BEN YAHMED AIDA HAJER,TUNIS VILLE,"36.799658,10.163075","8 bis, Rue MONGI SLIM TUNIS TUNIS VILLE",71326382,DAY
Pharmacie BEN YAHMED MONCEF,TUNIS VILLE,"36.793843,10.163075","23, PLACE DE LEADER TUNIS TUNIS VILLE",71564511,DAY
Pharmacie CHOUIKHA BEN MARZOUK AROUA,TUNIS VILLE,"36.811648,10.163075","55, Av DE LA LIBERTE TUNIS TUNIS VILLE",71830578,DAY
Pharmacie MAALEJ MOHAMED NEJIB,TUNIS VILLE,"36.822156,10.163075",PLACE PASTEUR TUNIS TUNIS VILLE,71282284,DAY
Pharmacie MOUDIR MOLKA,TUNIS VILLE,"36.797992,10.163075","4, Rue JAMEL ABDENNACEUR TUNIS TUNIS VILLE",71327806,DAY
Pharmacie PHARMACIE DU PARC,TUNIS VILLE,"36.805862,10.163075","73, Av DE LONDRES TUNIS TUNIS VILLE",71241701,DAY
Pharmacie RATEL RYM,TUNIS VILLE,"36.802734,10.163075","16, Rue D'ATHENES TUNIS TUNIS VILLE",71349346,DAY
Pharmacie TANBOURA SOUHEIL,TUNIS VILLE,"36.799776,10.163075","44, Av HABIB BOURGUIBA TUNIS TUNIS VILLE",71252535,DAY
Pharmacie ALJENE MOHAMED,TUNIS VILLE,"36.791780,10.163075","47, Rue EL MORKADH TUNIS TUNIS VILLE",71572512,DAY
Pharmacie BELKAID REJEB,TUNIS VILLE,"36.802895,10.165538","12, Av BAB BNET TUNIS TUNIS VILLE",71561360,DAY
Pharmacie BOUZAYENE MILED NEFISSA,TUNIS VILLE,"36.806087,10.165538","40, Av DU GHANA TUNIS TUNIS VILLE",71255829,DAY
Pharmacie DARGHOUTH MOHAMED EL MAHDI,TUNIS VILLE,"36.793731,10.165538","54, Rue EL JAZIRA TUNIS TUNIS VILLE",71328516,DAY
Pharmacie BEN JEMAA HAJER,TUNIS VILLE,"36.800145,10.165538","3, Rue DE ROME TUNIS TUNIS VILLE",71341935,DAY
Pharmacie KARRAY AHMED,TUNIS VILLE,"36.805651,10.165538","147, Av DE LONDRES TUNIS TUNIS VILLE",71343637,DAY
Pharmacie LAKHOUA ELYES,TUNIS VILLE,"36.826355,10.165538","22, Av ALAIN SAVARY TUNIS TUNIS VILLE",71280161,DAY
Pharmacie MAHJOUB SONIA,TUNIS VILLE,"36.798492,10.165538","88, Rue DE YOUGOSLAVIE TUNIS TUNIS VILLE",71254668,DAY
Pharmacie SAYAH NESRINE,TUNIS VILLE,"36.813143,10.165538","44, Av HEDI CHAKER TUNIS TUNIS VILLE",71288287,DAY
Pharmacie BELKADHI MONCEF,TUNIS VILLE,"36.800094,10.165538","43, Av H. BOURGUIBA - LE COLISEE TUNIS TUNIS VILLE",71348443,DAY
Pharmacie BEN GHOZZIA NESRINE,TUNIS VILLE,"36.807001,10.165538","230, Rue BAB SAADOUN TUNIS TUNIS VILLE",71560972,DAY
Pharmacie BEN HAMADOU MOHAMED,TUNIS VILLE,"36.809819,10.181922","22, Rue NELSON MANDELLA TUNIS TUNIS VILLE",71833387,DAY
Pharmacie BESBES BAYA,TUNIS VILLE,"36.812790,10.181922","41, Av BECHIR SFAR TUNIS TUNIS VILLE",71892750,DAY
Pharmacie BOUASSIDA NOUREDDINE,TUNIS VILLE,"36.788906,10.181922","18, Rue ABOUL KACEM ECHEBBI TUNIS TUNIS VILLE",71242401,DAY
Pharmacie ZAHAF SALMA,TUNIS VILLE,"36.817878,10.181922","117, Av DE LA LIBERTE TUNIS TUNIS VILLE",71890295,DAY
Pharmacie ISMAIL GHASSEN,TUNIS VILLE,"36.808900,10.181922","28, Rue BELHASSINE JRAD TUNIS TUNIS VILLE",71337648,DAY
Pharmacie MOKHTAR ENNAIFER NABILA,TUNIS VILLE,"36.79725,10.181922","83, Av FARHAT HACHED TUNIS TUNIS VILLE",71322651,DAY
Pharmacie ABBES EMNA,TUNIS VILLE,"36.812860,10.181922","48 ter, Rue DE PALESTINE TUNIS TUNIS VILLE",71835643,DAY
Pharmacie BEN ABDERRAHMEN FAIZA,TUNIS VILLE,"36.80409,10.181922","34, Av DE PARIS TUNIS TUNIS VILLE",71335878,DAY
Pharmacie CHAHED LAADHARI SAMIRA,TUNIS VILLE,"36.800198,10.181922","16, Av HABIB BOURGUIBA TUNIS TUNIS VILLE",71335433,DAY
Pharmacie KESSENTINI MOHAMED,TUNIS VILLE,"36.819275,10.181922","10, Av KHEIREDDINE PACHA TUNIS TUNIS VILLE",71841136,DAY
Pharmacie LAGHOUANEM BELGACEM,TUNIS VILLE,"36.798984,10.175784","24, Av DE FRANCE TUNIS TUNIS VILLE",71320553,DAY
Pharmacie LAHMAR HAMDI,TUNIS VILLE,"36.809488,10.175784","51, Av DE LYON TUNIS TUNIS VILLE",71848845,DAY
Pharmacie OUAHCHI SAMI LOTFI,TUNIS VILLE,"36.796225,10.175784","21, Av DE CARTHAGE TUNIS TUNIS VILLE",71240362,DAY
Pharmacie BEN LAMINE DALI RADHIA,TUNIS VILLE,"36.808362,10.175784","39, PLACE HALFAOUINE TUNIS TUNIS VILLE",71563513,DAY
Pharmacie ENNEIFER AHMED,BARDO,"36.816514,10.175784","79, Av HABIB BOUGATFA TUNIS BARDO",71580052,DAY
Pharmacie NOUREDDINE NAHLA,AKOUDA,"35.87275,10.589103","9, Av DE L'ENVIRONNEMENT SOUSSE AKOUDA",73810113,
Pharmacie GHEZAL FREDJ,AKOUDA,"35.865858,10.589103",Av DE LA REPUBLIQUE SOUSSE AKOUDA,73256011,
Pharmacie CHAHED MOHAMED BECHIR,AKOUDA,"35.872076,10.589103","37, Av HABIB BOURGUIBA SOUSSE AKOUDA",73356197,
Pharmacie BEN ROMDHANE SAMIR,BOUFICHA,"36.300483,10.589103",Av HEDI CHAKER SOUSSE BOUFICHA,73252011,
Pharmacie SOLAANI HAMDA,BOUFICHA,"36.300312,10.589103",Av HEDI CHAKER SOUSSE BOUFICHA,73252963,
Pharmacie JAIDANE MOURAD,CHATT MERIEM,"35.937375,10.589103",CHATT MERIEM SOUSSE CHATT MERIEM,73248265,
Pharmacie BEN SGHAIER RAOUDHA,ENFIDHA,"36.132318,10.589103","50, Av H. BOURGUIBA - CENTRE EL KAIED SOUSSE ENFIDHA",73381421,
Pharmacie GHRAIRI SALLEM,ENFIDHA,"36.135172,10.589103",Av DE LA REPUBLIQUE SOUSSE ENFIDHA,73250033,
Pharmacie BOUSSETTA MONGI,ENFIDHA,"36.131892,10.372901",Av H. BOURGUIBA - CITE EL MOUHIT SOUSSE ENFIDHA,73250258,DAY
Pharmacie HASSANI MOHAMED,ENFIDHA,"36.134938,10.372901",CITE WAFA SOUSSE ENFIDHA,73250070,DAY
Pharmacie KSOUS IMEDEDDINE,ENFIDHA,"36.133213,10.372901",Bd DE L'ENVIRONNEMENT SOUSSE ENFIDHA,73250362,DAY
Pharmacie YOUSSEF IMED,ENFIDHA,"36.136416,10.372901",Av DE LA REPUBLIQUE SOUSSE ENFIDHA,73250460,DAY
Pharmacie BEN OUANNES FAYCEL,ERRIADH,"35.803824,10.372901",Rue ETTAOUFIK SOUSSE ERRIADH,73301669,DAY
Pharmacie SLIMEN ABDELMONOOM,ERRIADH,"35.805879,10.372901","9, Rue IBN ABI BALTAA SOUSSE ERRIADH",73300666,DAY
Pharmacie BEN TEJ FEHAL MOUFIDA,ERRIADH,"35.801202,10.372901","118, Rue ECHIFA SOUSSE ERRIADH",73304745,DAY
Pharmacie SOUA DOUIK ZEINEB,ERRIADH,"35.799599,10.372901",Rue ETTAOUFIK SOUSSE ERRIADH,73300037,DAY
Pharmacie EL AYNI NEJIB,EZZOUHOUR,"35.789999,10.372901",Av DU 9 AVRIL et Av TAIEB MHIRI SOUSSE EZZOUHOUR,73311676,DAY
Pharmacie DERBEL MOHAMED  ,EZZOUHOUR,"35.792122,10.372901",Av 9 AVRIL SOUSSE EZZOUHOUR,73311671,DAY
Pharmacie JAIDANE NOURA,EZZOUHOUR,"35.789082,10.592919",Bd DE L'ENVIRONNEMENT SOUSSE EZZOUHOUR,73311031,DAY
Pharmacie HACHICHA JAMIL,HAMMAM SOUSSE,"35.86764557,10.592919","3, Av EL MAAMOUN - Imm AMIRA SOUSSE HAMMAM SOUSSE",73361866,DAY
Pharmacie ZEBIDI SAMIR,HAMMAM SOUSSE,"35.857300,10.592919","14, Av DE LA REPUBLIQUE SOUSSE HAMMAM SOUSSE",73362740,DAY
Pharmacie DALY HATEM,HAMMAM SOUSSE,"35.855733,10.592919",Rte DE TUNIS Km 3 SOUSSE HAMMAM SOUSSE,73371929,DAY
Pharmacie OUAHADA HEDHILI FERIDA,HAMMAM SOUSSE,"35.858463,10.592919",Rue EL HARIK SOUSSE HAMMAM SOUSSE,73324062,DAY
Pharmacie BEN AMOR FAHIMA,HAMMAM SOUSSE,"35.853925,10.592919",Rue YASSER ARAFET SOUSSE HAMMAM SOUSSE,73363064,DAY
Pharmacie BEN ZAID MONCEF,HAMMAM SOUSSE,"35.857713,10.592919",Rte DE TUNIS SOUSSE HAMMAM SOUSSE,73361670,DAY
Pharmacie BEN SLIMANE KRIFA MERIEM,HAMMAM SOUSSE,"35.863249,10.592919","54, Rte DE LA PLAGE SOUSSE HAMMAM SOUSSE",73364700,DAY
Pharmacie JABNOUN BEN HASSINE WIDED,HAMMAM SOUSSE,"35.852599,10.592919",Rue FARHAT HACHED SOUSSE HAMMAM SOUSSE,73365522,DAY
Pharmacie BOUKEF RAJA,HAMMAM SOUSSE,"35.860176,10.601017","22, Rte DE LA PLAGE SOUSSE HAMMAM SOUSSE",73365352,DAY
Pharmacie FERJANI TAOUFIK,HAMMAM SOUSSE,"35.858531,10.601017","30, Rue HEDI CHAKER SOUSSE HAMMAM SOUSSE",73362027,DAY
Pharmacie MANCHOUL SALEM,HERGLA,"36.029769,10.601017",Rue DU 18 JANVIER SOUSSE HERGLA,73251466,DAY
Pharmacie BEN AMEUR ROSTOM BALKIS,KALAA EL KEBIRA,"35.871545,10.601017",CITE COMMERCIALE SOUSSE KALAA EL KEBIRA,73253560,DAY
Pharmacie BOUKADDIDA MOHAMED LAMINE,KALAA EL KEBIRA,"35.870360,10.601017",Rue DU 1er JUIN SOUSSE KALAA EL KEBIRA,73253176,DAY
Pharmacie MECHKENE HABIBA,KALAA EL KEBIRA,"35.874807,10.601017",Rue FARHAT HACHED SOUSSE KALAA EL KEBIRA,73316926,DAY
Pharmacie CHEBIL HOSNI,KALAA EL KEBIRA,"35.869344,10.601017",Av HABIB BOURGUIBA SOUSSE KALAA EL KEBIRA,73253199,DAY
Pharmacie GUEDOUAR ABDALLAH,KALAA EL KEBIRA,"35.872730,10.601017",Av DU 18 JANVIER SOUSSE KALAA EL KEBIRA,73253018,DAY
Pharmacie MANSOUR SAMIR,KALAA EL KEBIRA,"35.876004,10.601017",PLACE DE LA VICTOIRE SOUSSE KALAA EL KEBIRA,73253755,DAY
Pharmacie BEN SAAD KHELIL,KALAA EL KEBIRA,"35.871269,10.601017",Rue 20 MARS? SOUSSE KALAA EL KEBIRA,73253281,DAY
Pharmacie BEN SLIMENE ABDERRAHMEN,KALAA EL KEBIRA,"35.8812957,10.5368542","67, Av DE L'ENVIRONNEMENT SOUSSE KALAA EL KEBIRA",73354270,DAY
Pharmacie KSOUDA BOURAOUI,KALAA ESSGHIRA,"35.823003,10.5368542","20, Av HABIB BOURGUIBA SOUSSE KALAA ESSGHIRA",73249253,DAY
Pharmacie MZABI ERNEZ ASMA,KALAA ESSGHIRA,"35.826314,10.5368542",PLACE HABIB BOURGUIBA SOUSSE KALAA ESSGHIRA,73296550,DAY
Pharmacie SRIDI TAHA,KALAA ESSGHIRA,"35.822115,10.5368542","27, Av HABIB BOURGUIBA SOUSSE KALAA ESSGHIRA",73249580,DAY
Pharmacie ZORGATI KHEFACHA JALILA,KALAA ESSGHIRA,"35.824795,10.5368542",Av HABIB BOURGUIBA SOUSSE KALAA ESSGHIRA,73249144,DAY
Pharmacie BELHAOUANE SAOUSSEN,KALAA ESSGHIRA,"35.829054,10.5368542","121, Rue El FELL - CITE MANAZAH SOUSSE KALAA ESSGHIRA",73298244,DAY
Pharmacie ERNEZ BEN ZAIED FATMA,KANTAOUI,"35.893436,10.5368542",DIAR EL BAHR SOUSSE KANTAOUI,73348437,DAY
Pharmacie NASR RADHOUANE,KONDAR,"35.932421,10.5368542",Av DE LA REPUBLIQUE SOUSSE KONDAR,73389561,DAY
Pharmacie ATTIA MAHMOUD,KONDAR,"35.9325088,10.5368542",Av HABIB BOURGUIBA SOUSSE KONDAR,73389703,DAY
Pharmacie BEN ZANINA BERRICHE FAOUZIA,KSIBET SOUSSE,"35.773832,10.625308",Av HABIB BOURGUIBA SOUSSE KSIBET SOUSSE,73238243,DAY
Pharmacie LAZREG BEN DOUISSA HAGER,KSIBET SOUSSE,"35.769648,10.625308",Av DU MAGHREB ARABE SOUSSE KSIBET SOUSSE,73390900,DAY
Pharmacie MAGROUN KAOUTHER HOUDA,MESSADINE,"35.759180,10.625308",Av HABIB BOURGUIBA SOUSSE MESSADINE,73285420,DAY
Pharmacie BOUHLEL MOHAMED,MSAKEN,"35.735143,10.625308","38, Av TAIEB HACHICHA SOUSSE MSAKEN",73259290,DAY
Pharmacie KRIFA FARHAT,MSAKEN,"35.728836,10.625308","94, Rue FARHAT HACHED SOUSSE MSAKEN",73259196,DAY
Pharmacie HACHICHA AHMED,MSAKEN,"35.727296,10.625308","23, Rue DU 1er JUIN SOUSSE MSAKEN",73259119,DAY
Pharmacie RZIGA JAOUHAR,MSAKEN,"35.731408,10.625308","12, Rue DU 20 MARS SOUSSE MSAKEN",73259102,DAY
Pharmacie CHEKIR ALI,MSAKEN,"35.729882,10.625308","139, Av HABIB BOURGUIBA SOUSSE MSAKEN",73259117,DAY
Pharmacie JAIDANE NEILA,MSAKEN,"35.73401824,10.625308","1, Av TAIEB HACHICHA SOUSSE MSAKEN",73266554,DAY
Pharmacie BEN CHERIFA MOHAMED ANOUAR,MSAKEN,"35.731972,10.625308","21, Av DE LA REPUBLIQUE SOUSSE MSAKEN",73259070,DAY
Pharmacie BOURAOUI NABILA,MSAKEN,"35.737819,10.583450",Rte GP1 SOUSSE MSAKEN,73259153,DAY
Pharmacie ATROUS SALEM,MSAKEN,"35.729792,10.583450","66, Rue 20 MARS  SOUSSE MSAKEN",73259913,DAY
Pharmacie HAMIDA MAKREM,MSAKEN,"35.729517,10.583450",Rue TAIEB MHIRI SOUSSE MSAKEN,73267435,DAY
Pharmacie METHAMEM FAOUZI,SIDI BOU ALI,"35.955962,10.583450",Av HABIB BOURGUIBA SOUSSE SIDI BOU ALI,73247366,DAY
Pharmacie BACHA AHLEM,SIDI BOU ALI,"35.954524,10.583450",Av HABIB BOURGUIBA SOUSSE SIDI BOU ALI,73255455,DAY
Pharmacie LIOUANE HEDI,SIDI EL HENI,"35.681083,10.583450",SIDI EL HENI SOUSSE SIDI EL HENI,73280001,DAY
Pharmacie BEN CHERIFA RIDHA,SOUSSE VILLE,"35.824243,10.583450","23, Av HABIB THAMEUR SOUSSE SOUSSE VILLE",73224977,DAY
Pharmacie BEN MOUSSA HABIB,SOUSSE VILLE,"35.850254,10.583450","163, Rue DES PALMIERS SOUSSE SOUSSE VILLE",73274078,DAY
Pharmacie BEN SAAD SOUAD,SOUSSE VILLE,"35.838753,10.583450","Av, YASSER ARAFET SOUSSE SOUSSE VILLE",73820610,DAY
Pharmacie GRAZINA HAMOUDA,SOUSSE VILLE,"35.851898,10.583450",Av HEDI GARNAOUI SOUSSE SOUSSE VILLE,73240166,DAY
Pharmacie JERBI ABDELKADER,SOUSSE VILLE,"35.832550,10.622117",OUED EL KHARROUB SOUSSE SOUSSE VILLE,73229239,DAY
Pharmacie KALLALA MOHAMED MONDHER,SOUSSE VILLE,"35.814742,10.622117","16, Av IBN KHALDOUN SOUSSE SOUSSE VILLE",73237711,DAY
Pharmacie ZAOUI BECHIR,SOUSSE VILLE,"35.831276,10.622117",Av 3 AOUT SOUSSE SOUSSE VILLE,73224563,DAY
Pharmacie BEN OUANNES MOHAMED MAHER,SOUSSE VILLE,"35.836824,10.622117",Av YASSER ARAFET SOUSSE SOUSSE VILLE,73272735,DAY
Pharmacie CHAIEB LOUED HOUDA,SOUSSE VILLE,"35.844742,10.622117",Av KHEZEMA SOUSSE SOUSSE VILLE,73277315,DAY
Pharmacie CHEMLI BECHIR,SOUSSE VILLE,"35.82030639,10.622117",Av 18 JANVIER et Rue HAMDA SAKKA  SOUSSE SOUSSE VILLE,73223898,DAY
Pharmacie ECHEIKH HASSEN MOHAMED,SOUSSE VILLE,"35.830231,10.622117","5, Av HABIB BOURGUIBA SOUSSE SOUSSE VILLE",73201327,DAY
Pharmacie GARNAOUI MONDHER,SOUSSE VILLE,"35.835245,10.622117",Rue CONSTANTINE SOUSSE SOUSSE VILLE,73229449,DAY
Pharmacie NAIJA MONCEF,SOUSSE VILLE,"35.830999,10.622117","6, Av TAHAR SFAR SOUSSE SOUSSE VILLE",73227662,DAY
Pharmacie SAKLY SEKHIRI AOUATEF,SOUSSE VILLE,"35.833605,10.622117",Av MOHAMED KAROUI SOUSSE SOUSSE VILLE,73201839,DAY
Pharmacie BEN YOUSSEF FREDJ,SOUSSE VILLE,"35.845483,10.606627",Rue BOUKHARI SOUSSE SOUSSE VILLE,73319501,DAY
Pharmacie BOUASSIDA BENZARTI WAFA,SOUSSE VILLE,"35.842434,10.606627",Av MAGHREB ARABE - Rce BLIBANE SOUSSE SOUSSE VILLE,73270722,DAY
Pharmacie BOUAZIZ NAJDA,SOUSSE VILLE,"35.812672,10.606627","12, Rue IBN KHALDOUN SOUSSE SOUSSE VILLE",73383460,DAY
Pharmacie KSIA DALEL,SOUSSE VILLE,"35.839479,10.606627",Av KHELIFA KAROUI SOUSSE SOUSSE VILLE,73822331,DAY
Pharmacie MESTIRI FADHEL,SOUSSE VILLE,"35.853116,10.606627",Rue EL AKID EL GARNAOUI SOUSSE SOUSSE VILLE,73270335,DAY
Pharmacie NOUIRA JENAYAH SOUHA,SOUSSE VILLE,"35.829903,10.606627","26, Rue IBN EL JAZZAR SOUSSE SOUSSE VILLE",73200230,DAY
Pharmacie PHARMACIE DOUIK,SOUSSE VILLE,"35.826080,10.606627",Av HABIB THAMEUR SOUSSE SOUSSE VILLE,73224258,DAY
Pharmacie ACACHA BECHIR SAHBI,SOUSSE VILLE,"35.833796,10.606627","25, Rue LEOPOLD SENGHOR SOUSSE SOUSSE VILLE",73223029,DAY
Pharmacie BEN CHERIFA MONCEF,SOUSSE VILLE,"35.827243,10.606627","17, Av DE FRANCE SOUSSE SOUSSE VILLE",73223843,DAY
Pharmacie BEN MANSOUR HABIB,SOUSSE VILLE,"35.836089,10.606627",Av A. KADHI - LA CORNICHE SOUSSE SOUSSE VILLE,73229630,DAY
Pharmacie BROSSARD MYRIAM,SOUSSE VILLE,"35.85176,10.61389",Rue DES ORANGERS  SOUSSE SOUSSE VILLE,73277910,DAY
Pharmacie DRISS SAMIA NAJEH,SOUSSE VILLE,"35.842794,10.61389",Av KHELIFA KAROUI SOUSSE SOUSSE VILLE,73243540,DAY
Pharmacie FRIGUI HAFEDH,SOUSSE VILLE,"35.82572125,10.61389",Av IBN EL JAZZAR - Imm HELYA SOUSSE SOUSSE VILLE,73212222,DAY
Pharmacie BEN JAZIA MAHMOUD,SOUSSE VILLE,"35.848380,10.61389",Av DES PALMIERS SOUSSE SOUSSE VILLE,73242390,DAY
Pharmacie BOURAOUI MAHMOUD,SOUSSE VILLE,"35.831814,10.61389","11, Rue Dr MOREAU SOUSSE SOUSSE VILLE",73222880,DAY
Pharmacie BOUSSETTA SAMI,SOUSSE VILLE,"35.829542,10.61389","19, Rue ALI BELHOUANE SOUSSE SOUSSE VILLE",73225054,DAY
Pharmacie CHAYATA MOHAMED NACEUR,SOUSSE VILLE,"35.816230,10.61389",Av DU 15 OCTOBRE SOUSSE SOUSSE VILLE,73331563,DAY
Pharmacie DRISS HAMDENE RAJA,SOUSSE VILLE,"35.834127,10.61389",Rue SLEIM AMMAR SOUSSE SOUSSE VILLE,73820079,DAY
Pharmacie GUEMIDENE NEILA,SOUSSE VILLE,"35.817150,10.61389",Av ABOU HAMED EL GHAZALI SOUSSE SOUSSE VILLE,73235650,DAY
Pharmacie BELHAMRA KHELIFA FETHIA,SOUSSE VILLE,"35.81210404,10.61389",CITE ETTAAMIR SOUSSE SOUSSE VILLE,73234230,DAY
Pharmacie CHEHATA RAOUDHA,SOUSSE VILLE,"35.829245,10.636892",Bd M. MAAROUF - Imm EL HOUDA SOUSSE SOUSSE VILLE,73225284,DAY
Pharmacie DHIDAH MONCEF,SOUSSE VILLE,"35.836417,10.636892",Av KHELIFA KAROUI SOUSSE SOUSSE VILLE,73278546,DAY
Pharmacie KSIA SARRA,SOUSSE VILLE,"35.853826,10.636892",Av DE LA PERLE DU SAHEL SOUSSE SOUSSE VILLE,73244066,DAY
Pharmacie MILED RIADH,SOUSSE VILLE,"35.844367,10.636892","56, Av DU GRAND MAGHREB SOUSSE SOUSSE VILLE",73275011,DAY
Pharmacie SLIM AMEL EP TOUZI,SOUSSE VILLE,"35.837378,10.636892","45, Av ABDELHAMID EL KADHI SOUSSE SOUSSE VILLE",73227071,DAY
Pharmacie ZAIER RAOUDHA,SOUSSE VILLE,"35.831583,10.636892","42, Av MOHAMED KAROUI SOUSSE SOUSSE VILLE",73229457,DAY
Pharmacie BEN SAID KMICHA AMEL,SOUSSE VILLE,"35.839534,10.636892",PLACE DU MAGHREB ARABE SOUSSE SOUSSE VILLE,73223762,DAY
Pharmacie DOUDECH AICHA,SOUSSE VILLE,"35.810582,10.636892",Rue 1 JUIN - TAFFALA SOUSSE SOUSSE VILLE,73237622,DAY
Pharmacie LAMINE KAMEL,SOUSSE VILLE,"35.832253,10.636892",Av HABIB BOURGUIBA SOUSSE SOUSSE VILLE,73210137,DAY
Pharmacie PHARMACIE LES JASMINS (GUITOUNI+KLABI),SOUSSE VILLE,"35.854630,10.636892",Av 14 JANVIER - Imm CESAR SOUSSE SOUSSE VILLE,73275480,DAY
Pharmacie SALEM MOOTAMRI NABIHA,SOUSSE VILLE,"35.823555,10.638064","17, Rue DE MARR - LA MEDINA SOUSSE SOUSSE VILLE",73227045,DAY
Pharmacie SELLAMI MALEK,SOUSSE VILLE,"35.82487975,10.638064",Bd STADE OLYMPIQUE SOUSSE SOUSSE VILLE,73232030,DAY
Pharmacie ZARROUK TAOUFIK,SOUSSE VILLE,"35.830236,10.638064","31, Av DE LA REPUBLIQUE SOUSSE SOUSSE VILLE",73224810,DAY
Pharmacie ZAYATI GONGI BESMA,SOUSSE VILLE,"35.839959,10.638064",Av TAIEB MHIRI - Imm BYBLOS SOUSSE SOUSSE VILLE,73227075,DAY
Pharmacie BEN MEDDEB MOHAMED HABIB,TANTANA,"35.913967,10.638064",Rte TOURISTIQUE - TANTANA SOUSSE TANTANA,73329810,DAY
Pharmacie BECHIKH KHAOULA,THRAYET,"35.75429252610192,10.638064",Rue BASSATINE SOUSSE THRAYET,73387118,DAY
Pharmacie DARDOURI JRAD WISSAL,ZAOUIET SOUSSE,"35.790908,10.638064",Av DE L'ENVIRONNEMENT SOUSSE ZAOUIET SOUSSE,73237225,DAY
Pharmacie HAMDI FAIZA,ZAOUIET SOUSSE,"35.798109,10.638064",Rte EL MOUREDDINE SOUSSE ZAOUIET SOUSSE,73305353,DAY
Pharmacie MEZGHANNI MZABI RAFIAA,ZAOUIET SOUSSE,"35.786966,10.638064",Av DU 14 JANVIER SOUSSE ZAOUIET SOUSSE,73231856,DAY
Pharmacie ZGHIDA RAJA,ZAOUIET SOUSSE,"35.790256,10.619926",Av DU CAIRE - Rte DE MSAKEN SOUSSE ZAOUIET SOUSSE,73334861,DAY
Pharmacie SELMI RABI,KSIBET SOUSSE,"35.777113,10.619926",Av HABIB BOURGUIBA SOUSSE KSIBET SOUSSE,73238495,DAY
Pharmacie FELAH WISSEM,ZAOUIET SOUSSE,"35.782645,10.619926",Av DU 14 JANVIER SOUSSE ZAOUIET SOUSSE,73386888,DAY
Pharmacie BACCOUCHE BECHIR,AKOUDA,"35.865832,10.569202",Av DE LA REPUBLIQUE SOUSSE AKOUDA,73256106,NIGHT
Pharmacie KENANI RAMZI,ENFIDHA,"36.131947,10.569202",Av DE L'ENVIRONNEMENT SOUSSE ENFIDHA,73250412,NIGHT
Pharmacie BLEL SAIDA,EZZOUHOUR,"35.788325,10.569202","107, Av 14 JANVIER SOUSSE EZZOUHOUR",73310504,NIGHT
Pharmacie MEDDEB ABDELHAMID,HAMMAM SOUSSE,"35.856640,10.569202",Rte DE TUNIS SOUSSE HAMMAM SOUSSE,73365457,NIGHT
Pharmacie LEJMI MOHAMED ALI,HERGLA,"36.028330,10.569202",Rue HANNIBAL SOUSSE HERGLA,73251735,NIGHT
Pharmacie SAKKA NAWEL,KALAA EL KEBIRA,"35.869297,10.569202",Rue DU 1er JUIN SOUSSE KALAA EL KEBIRA,73253248,NIGHT
Pharmacie DIMASSI SALMA,KALAA ESSGHIRA,"35.822968,10.569202",Av HABIB BOURGUIBA SOUSSE KALAA ESSGHIRA,73249245,NIGHT
Pharmacie BELHAJ JRAD MOHAMED TAHAR,KONDAR,"35.934788,10.569202",GP 2 SOUSSE KONDAR,73389753,NIGHT
Pharmacie LAHMAR AFEF,KSIBET SOUSSE,"35.774554,10.569202",Av HABIB BOURGUIBA SOUSSE KSIBET SOUSSE,73390340,NIGHT
Pharmacie MASMOUDI MOHAMED SABER,MESSADINE,"35.75789392,10.569202",Av DU 14 JANVIER SOUSSE MESSADINE,73323887,NIGHT
Pharmacie BEN MOUSSA MUSTAPHA,MSAKEN,"35.730303,10.577882",125 Av HABIB BOURGUIBA SOUSSE MSAKEN,73259027,NIGHT
Pharmacie SAKLI ABDALLAH,MSAKEN,"35.73506392,10.577882",Av TAIEB HACHICHA SOUSSE MSAKEN,73261500,NIGHT
Pharmacie BRAHEM MSELMI AIDA,RIADH,"35.808157,10.577882",Rue IBN ABI BALTAA. Imm EL HOUDA SOUSSE RIADH,73307980,NIGHT
Pharmacie BOUHAFA BEN ROMDHANE LAMIA,SIDI BOU ALI,"35.955617,10.577882","33, Av HABIB BOURGUIBA SOUSSE SIDI BOU ALI",73247138,NIGHT
Pharmacie BEN ELHENI IMENE,SIDI EL HENI,"35.681101,10.577882",Rte NATIONALE 12 SOUSSE SIDI EL HENI,73280206,NIGHT
Pharmacie HAMDI LEILA,SOUSSE VILLE,"35.814151,10.577882",Av 15 OCTOBRE SOUSSE SOUSSE VILLE,73232920,NIGHT
Pharmacie KHELIFA NEJI,SOUSSE VILLE,"35.831541,10.577882",38 Av DE LA REPUBLIQUE SOUSSE SOUSSE VILLE,73224795,NIGHT
Pharmacie BEN MEDDEB ABDELLATIF,SOUSSE VILLE,"35.833373,10.577882","11, Rue MOHAMED EL KAROUI SOUSSE SOUSSE VILLE",73228619,NIGHT
Pharmacie DRISS BOUZID DHOUHA,YASMINE HAMMAMET,"36.363257,10.577882",Av DE LA MEDINA SOUSSE YASMINE HAMMAMET,72241242,NIGHT
Pharmacie OUESLATI IMED,ZAOUIET SOUSSE,"35.798200,10.577882",Bd IMAM ABOU HANIFA SOUSSE ZAOUIET SOUSSE,73304917,NIGHT
Pharmacie AMRI  WASSIM,CHATT MERIEM,"35.935297,10.325388",CHOTT MERIEM SOUSSE CHATT MERIEM,31555582,NIGHT
Pharmacie AOUIDJ LATIFA,BORJ LOUZIR,"36.865106,10.202024","15, Av MUSTAPHA MOHSEN ARIANA BORJ LOUZIR",71691906,NIGHT
Pharmacie JALLOULI MASMOUDI HEDIA,ENNASR,"36.855966,10.202024",Av HEDI NOUIRA - Imm EL KHALIL ARIANA ENNASR,71828537,NIGHT
Pharmacie GUIGA MOHAMED ZOUBEIR,ETTADHAMEN,"36.829672,10.202024","8, Av DE L'INDEPENDANCE ARIANA ETTADHAMEN",71546273,NIGHT
Pharmacie BEN YAGHLANE NADHIM,ETTADHAMEN,"36.833679,10.202024","112, Av TAIEB MHIRI ARIANA ETTADHAMEN",70663644,NIGHT
Pharmacie ATTALLAH HAFEDH,INTILAKA,"36.840227,10.202024",Rte DE BIZERTE Km 4 ARIANA INTILAKA,71650862,NIGHT
Pharmacie SOUID ABDELJELIL,KALAAT ANDALOUS,"37.062588,10.202024",Rte DE LA PLAGE ARIANA KALAAT ANDALOUS,71558206,NIGHT
Pharmacie FOURATI SALMA,LA SOUKRA,"36.8644998,10.202024",Av UMA ARIANA LA SOUKRA,70721686,NIGHT
Pharmacie NAJJAR HICHEM,LA SOUKRA,"36.876659,10.202024","63, Av FATTOUMA BOURGUIBA ARIANA LA SOUKRA",70946544,NIGHT
Pharmacie KOTRANE RIADH,RAOUED,"36.879426,10.202024","49, Av FETHI ZOUHEIR ARIANA RAOUED",71866672,NIGHT
Pharmacie SARRAI KARIM,RAOUED,"36.887664,10.202024","116, Av FETHI ZOUHEIR ARIANA RAOUED",71857662,NIGHT
Pharmacie BIBI SALMA,SIDI THABET,"36.909636,10.044214","100, Av HABIB BOURGUIBA ARIANA SIDI THABET",71553219,NIGHT
Pharmacie ZOUARI ABDESSATTAR,AIN ZAGHOUANE,"36.861630,10.276283","92, Av KHALED IBN EL WALID TUNIS AIN ZAGHOUANE",71724336,NIGHT
Pharmacie BOUHAJEB HOSNI,CARTHAGE,"36.841184,10.276283","1, Rue SCIPION TUNIS CARTHAGE",71731228,NIGHT
Pharmacie KOLSI IMED,CITE EL KHADHRA,"36.829930,10.276283","92, Av LOUIS BRAILLE TUNIS CITE EL KHADHRA",71327009,NIGHT
Pharmacie BEN YAHIA MARIEM,EZZOUHOUR,"36.793873,10.276283","32 bis, Rue 4001 TUNIS EZZOUHOUR",71529925,NIGHT
Pharmacie DEBBICHE SOUFIA,IBN KHALDOUN,"36.824810,10.276283","45, Av IBN EL KHATIB TUNIS IBN KHALDOUN",71929842,NIGHT
Pharmacie OUESLATI MOHAMED SALAH,KABBARIA,"36.754745,10.276283","29, Rue 10236 TUNIS KABBARIA",71270727,NIGHT
Pharmacie SADDEM ABDERRAZZAK,LA GOULETTE,"36.829392,10.276283","194, Av HABIB BOURGUIBA TUNIS LA GOULETTE",71720222,NIGHT
Pharmacie BACH HAMBA SFAIHI MAHMOUD,LA MARSA,"36.878606,10.276283","9, Av ALI BELHOUANE TUNIS LA MARSA",71775770,NIGHT
Pharmacie ANNABI GHAIET MOUNA,LA MARSA,"36.886299,10.276283","32, Av TAIEB MHIRI TUNIS LA MARSA",71729811,NIGHT
Pharmacie GUIGA MAHER,BARDO,"36.810395,10.276283","24, Av HABIB BOURGUIBA TUNIS BARDO",71222284,NIGHT
Pharmacie MELIANI BALTI SAIDA,BARDO,"36.813453,10.147052","60, Av HABIB BOUGATFA TUNIS BARDO",71510700,NIGHT
Pharmacie DEBBICHE MOHAMED MONDHER,LE KRAM,"36.834892,10.147052","207, Av HABIB BOURGUIBA TUNIS LE KRAM",71721354,NIGHT
Pharmacie KARRAY ZIED,MANAR,"36.842529,10.147052","24, CENTRE DORRA TUNIS MANAR",71887635,NIGHT
Pharmacie HOUISSA MOHAMED SALAH,SIDI BOU SAID,"36.869246,10.147052","13, Av HABIB BOURGUIBA TUNIS SIDI BOU SAID",71740958,NIGHT
Pharmacie MACHAT HAIFA,SIDI HASSINE,"36.781645,10.147052",Rue 4657 - Rte DE MORNAGUIA TUNIS SIDI HASSINE,71934999,NIGHT
Pharmacie KILANI MARIEM,TUNIS VILLE,"36.790371,10.147052","56, Rue SIDI EL BECHIR TUNIS TUNIS VILLE",71347224,NIGHT
Pharmacie JENAN HOSNIA,TUNIS VILLE,"36.791855,10.147052","44, Av BAB DJEDID TUNIS TUNIS VILLE",71240994,NIGHT
Pharmacie OUAHCHI MUSTAPHA,TUNIS VILLE,"36.805763,10.147052","47, Av ALI BELHOUANE TUNIS TUNIS VILLE",71262600,NIGHT
Pharmacie KARRAY SLIM,TUNIS VILLE,"36.808018,10.147052","20, Av DE LA LIBERTE TUNIS TUNIS VILLE",71253520,NIGHT
Pharmacie BOUBAYA HOUSSEM,TUNIS VILLE,"36.811807,10.165772","21, Av HEDI SAIDI TUNIS TUNIS VILLE",71897768,NIGHT
Pharmacie KHABTHANI RACHED,TUNIS VILLE,"36.800013,10.165772","43, Av H. BOURGUIBA - LE COLISEE TUNIS TUNIS VILLE",71252507,NIGHT
Pharmacie BEN JEMAA LAMIA,CITE MHIRI,"36.859683,10.165772",Rce NARJESS - EL AOUINA TUNIS CITE MHIRI,58399671,NIGHT
Pharmacie BACCOUCHE BECHIR,AKOUDA,"35.865832,10.569202",Av DE LA REPUBLIQUE SOUSSE AKOUDA,73256106,NIGHT
Pharmacie KENANI RAMZI,ENFIDHA,"36.131947,10.569202",Av DE L'ENVIRONNEMENT SOUSSE ENFIDHA,73250412,NIGHT
Pharmacie BLEL SAIDA,EZZOUHOUR,"35.788325,10.569202","107, Av 14 JANVIER SOUSSE EZZOUHOUR",73310504,NIGHT
Pharmacie MEDDEB ABDELHAMID,HAMMAM SOUSSE,"35.856640,10.569202",Rte DE TUNIS SOUSSE HAMMAM SOUSSE,73365457,NIGHT
Pharmacie LEJMI MOHAMED ALI,HERGLA,"36.028330,10.569202",Rue HANNIBAL SOUSSE HERGLA,73251735,NIGHT
Pharmacie SAKKA NAWEL,KALAA EL KEBIRA,"35.869297,10.569202",Rue DU 1er JUIN SOUSSE KALAA EL KEBIRA,73253248,NIGHT
Pharmacie DIMASSI SALMA,KALAA ESSGHIRA,"35.822968,10.569202",Av HABIB BOURGUIBA SOUSSE KALAA ESSGHIRA,73249245,NIGHT
Pharmacie BELHAJ JRAD MOHAMED TAHAR,KONDAR,"35.934788,10.569202",GP 2 SOUSSE KONDAR,73389753,NIGHT
Pharmacie LAHMAR AFEF,KSIBET SOUSSE,"35.774554,10.569202",Av HABIB BOURGUIBA SOUSSE KSIBET SOUSSE,73390340,NIGHT
Pharmacie MASMOUDI MOHAMED SABER,MESSADINE,"35.75789392,10.569202",Av DU 14 JANVIER SOUSSE MESSADINE,73323887,NIGHT
Pharmacie BEN MOUSSA MUSTAPHA,MSAKEN,"35.730303,10.577882",125 Av HABIB BOURGUIBA SOUSSE MSAKEN,73259027,NIGHT
Pharmacie SAKLI ABDALLAH,MSAKEN,"35.73506392,10.577882",Av TAIEB HACHICHA SOUSSE MSAKEN,73261500,NIGHT
Pharmacie BRAHEM MSELMI AIDA,RIADH,"35.808157,10.577882",Rue IBN ABI BALTAA. Imm EL HOUDA SOUSSE RIADH,73307980,NIGHT
Pharmacie BOUHAFA BEN ROMDHANE LAMIA,SIDI BOU ALI,"35.955617,10.577882","33, Av HABIB BOURGUIBA SOUSSE SIDI BOU ALI",73247138,NIGHT
Pharmacie BEN ELHENI IMENE,SIDI EL HENI,"35.681101,10.577882",Rte NATIONALE 12 SOUSSE SIDI EL HENI,73280206,NIGHT
Pharmacie HAMDI LEILA,SOUSSE VILLE,"35.814151,10.577882",Av 15 OCTOBRE SOUSSE SOUSSE VILLE,73232920,NIGHT
Pharmacie KHELIFA NEJI,SOUSSE VILLE,"35.831541,10.577882",38 Av DE LA REPUBLIQUE SOUSSE SOUSSE VILLE,73224795,NIGHT
Pharmacie BEN MEDDEB ABDELLATIF,SOUSSE VILLE,"35.833373,10.577882","11, Rue MOHAMED EL KAROUI SOUSSE SOUSSE VILLE",73228619,NIGHT
Pharmacie DRISS BOUZID DHOUHA,YASMINE HAMMAMET,"36.363257,10.577882",Av DE LA MEDINA SOUSSE YASMINE HAMMAMET,72241242,NIGHT
Pharmacie OUESLATI IMED,ZAOUIET SOUSSE,"35.798200,10.577882",Bd IMAM ABOU HANIFA SOUSSE ZAOUIET SOUSSE,73304917,NIGHT
Pharmacie AMRI  WASSIM,CHATT MERIEM,"35.935297,10.325388",CHOTT MERIEM SOUSSE CHATT MERIEM,31555582,NIGHT
